,address,lat,lon,name,subCategory
0,23 Quai Anatole France,48.862078000000004,2.322534,Concorde Atlantique,Boat or Ferry
1,17 Place du Trocadéro,48.862300919263,2.288224697113,Palais de Chaillot,Monument / Landmark
2,Quai François Mauriac,48.833678839753,2.3756861686707,Bibliothèque Nationale de France (BNF),Library
3,Place Charles de Gaulle,48.873796999999996,2.294952,Arc de Triomphe,Monument / Landmark
4,4 Boulevard du Palais,48.855919909377,2.3446369171143,Palais de Justice de Paris,Courthouse
5,Place du Panthéon,48.846283325284006,2.3460638523102,Panthéon,Monument / Landmark
6,15 Rue de Vaugirard,48.848776,2.337293,Palais du Luxembourg,Monument / Landmark
7,18 Rue de Dunkerque,48.880775847872,2.3552370071411,Gare SNCF de Paris-Nord,Train Station
8,Place Octave Chanute,48.865806,2.407556,La Campagne à Paris,Housing Development
9,Hôtel d'Évreux,48.870333993871,2.3162339595141,Palais de l'Élysée,Government Building
10,Port de la Bourdonnais,48.860423405685,2.2939538955687997,Bateaux Parisiens,Boat or Ferry
11,14 rue La Fontaine,48.852303000000006,2.27454,Castel Beranger,Building
12,15 rue Merlin,48.860440894381,2.3851696890505,Salle Olympe de Gouges,Monument / Landmark
13,Port de la Bourdonnais,48.860747129406,2.2947237634297997,Port de la Bourdonnais,Harbor / Marina
14,68 Rue François Miron,48.855639577106,2.3580792961032,Hôtel de Beauvais,Historic Site
15,17 Quai d'Anjou,48.851501484831,2.3599297580558,Hôtel de Lauzun,Monument / Landmark
16,46 Rue du Bac,48.856325916807,2.3264923677794003,Deyrolle,Miscellaneous Shop
17,7 Place du Parvis Notre-Dame,48.85339733802301,2.3478759174598998,Crypte Archéologique du Parvis Notre-Dame,Monument / Landmark
18,23 Quai de Conti,48.857282295048996,2.3369336128235,Institut de France,Government Building
19,Boulevard Auguste Blanqui,48.831348184153995,2.3434356865456,Boulevard Auguste Blanqui,Road
20,Boulevard Mortier,48.871115606256,2.4088451607907997,Boulevard Mortier,Road
21,Boulevard de Port-Royal,48.83742167914001,2.3468255996704,Boulevard de Port-Royal,Road
22,Rue du Télégraphe,48.873707521924,2.3992546292135,Rue du Télégraphe,Road
23,Rue Belgrand,48.8647999992,2.4007185796202,Rue Belgrand,Monument / Landmark
24,Avenue d’Italie,48.825387101633,2.3574900627136,Avenue d’Italie,Road
25,61 rue Boissière,48.868288839336,2.2876713659224,Centre Culturel de Russie,Convention Center
26,28 Rue Saint-Dominique,48.860136,2.317125,Maison de la Chimie,Convention Center
27,Rue des Francs-Bourgeois,48.858107788926,2.3603722003785,Rue des Francs-Bourgeois,Road
28,Port Henri IV,48.847914262204,2.36332654953,Yachts de Paris,Boat or Ferry
29,1 Place de la Porte de Versailles,48.831588377564,2.2870016098022004,Parc des Expositions de la Porte de Versailles,Convention Center
30,67 Rue du Faubourg Saint Martin,48.871927914974,2.3571051414018998,Espace Tapis Rouge,Convention Center
31,1 à 13 Quai de Grenelle,48.85406925,2.288122,CAP 15,Convention Center
32,9 Avenue Hoche,48.8772265375,2.3041240000000003,Salons Hoche,Meeting Room
33,87 bd de Port Royal,48.83825,2.342605,S.O.S Médecins,Medical Center
34,Port de Solferino,48.860949101226,2.3258543470516004,Marina de Paris (La),Boat or Ferry
35,Avenue des Champs-Élysées,48.870388950616,2.3055410385132005,Avenue des Champs-Élysées,Road
36,13 Rue d'Amsterdam,48.876372969982995,2.3253893852234,Gare SNCF de Paris Saint-Lazare,Train Station
37,Place du 11 Novembre 1918,48.877120922078,2.3594212532043,Gare SNCF de Paris-Est,Train Station
38,17 boulevard Jourdan,48.820887517867,2.3390042781830003,RER Cité Universitaire [B],Train Station
39,1 bd de la tour maubourg,48.86161226425801,2.310587696467,Centre Culturel de Chine à Paris,Embassy / Consulate
40,18 Place Adolphe Cherioux,48.839441283853,2.3009705543518,Métro Vaugirard [12],Subway
41,Rue du Poteau,48.894061775345,2.3419792811516,Rue du Poteau,Road
42,Rue de l'Assomption,48.853743347272996,2.2718100013666,Rue de l'Assomption,Road
43,Rue des Pyrénées,48.862244,2.400041,Rue des Pyrénées,Road
44,1 Boulevard de Montparnasse,48.846798735333,2.3165702819823997,"Métro Duroc [10,13]",Subway
45,Boulevard Haussmann,48.874849130277994,2.3188950189993998,Boulevard Haussmann,Road
46,Rue Vieille du Temple,48.859915194409,2.3607516288757004,Rue Vieille du Temple,Road
47,15 rue Eugène Millon,48.837773822188,2.2927114693212998,Hôpital Cognac-Jay,Hospital
48,25 rue Claude Tillier,48.848580123861,2.3882906979716,ADBS,Meeting Room
49,22-30 avenue de Wagram,48.876417096043994,2.2976429720385,EDF (bâtiment Wagram),Office
50,94 Boulevard Garibaldi,48.845605517693,2.3095750808716002,Métro Sèvres—Lecourbe [6],Subway
51,162 Rue de Vaugirard,48.842682367363004,2.3127830028533998,"Métro Pasteur [6,12]",Subway
52,Rue Mabillon,48.852856170924994,2.335410118103,Métro Mabillon [10],Subway
53,Rue Choiseul,48.870232943939,2.3357570793474998,rue Choiseul,Road
54,21 Boulevard Ornano,48.893304994544,2.3481559753418,Métro Simplon [4],Subway
55,Rue Daguerre,48.834082980179005,2.3289482097039,Rue Daguerre,Road
56,Place Beauvau,48.871207561562,2.3163771629334,Hôtel de Beauvau - Ministère de l'Intérieur,Government Building
57,8/10 Rue Mario Nikis,48.848141762901,2.304541769823,European Space Agency HQ,Government Building
58,Place Saint-Germain-des-Prés,48.853759781483,2.3335003852844,Métro Saint-Germain-des-Prés [4],Subway
59,44 rue Charles Moureu,48.829102308991004,2.3606014251708998,Centre de santé Edison,Medical Center
60,Port de Suffren,48.858872980256,2.2916269279252997,Vedettes de Paris,Boat or Ferry
61,,48.838936806782996,2.357984308117,Clinique du sport,Hospital
62,Avenue de l'Opéra,48.865787543339,2.3343801498413,"Métro Pyramides [7,14]",Subway
63,Rue de Courcelles,48.88166484349399,2.3005414009094,Rue de Courcelles,Road
64,Rue du Chevaleret,48.829808591016,2.3763513565062997,Métro Bibliothèque François Mitterrand [14],Subway
65,51 Rue Réaumur,48.866246291581,2.3525011539458998,"Métro Réaumur—Sébastopol [3,4]",Subway
66,Avenue Mozart,48.852810612333,2.268583214624,Avenue Mozart,Road
67,Boulevard Malesherbes,48.878024094608,2.3159265518187997,Boulevard Malesherbes,Road
68,Rue Pixérécourt,48.873698985178,2.3957990788361,Rue Pixérécourt,Road
69,Rue du Faubourg Saint-Honoré,48.871391041487996,2.3154759407043,Rue du Faubourg Saint-Honoré,Road
70,67 Boulevard Barbès,48.891470968768,2.3495292663573997,"Métro Marcadet—Poissonniers [4,12]",Subway
71,Rue de Buci,48.853753803583004,2.3378453119606,Rue de Buci,Road
72,126 Rue Raymond Losserand,48.831729627757,2.3139953613281,Métro Plaisance [13],Subway
73,,48.844143,2.390419,IFSI des Diaconesses,General College & University
74,141 Boulevard Saint-Michel,48.85339269166099,2.3439931869507005,Métro Saint-Michel [4],Subway
75,Place de l'Étoile,48.874241950808,2.2954130172729,"Métro Charles de Gaulle-Étoile [1,2,6]",Subway
76,Place de la Nation,48.848719120588996,2.3960065841675,RER Nation [A],Train Station
77,Rue Lafayette,48.878519750897,2.3531894604022003,Rue La Fayette,Road
78,2 Rue Montpensier,48.863110862222,2.3364942333119,Conseil Constitutionnel,Government Building
79,Avenue de Villiers,48.882680819141996,2.3098754882812003,Métro Malesherbes [3],Subway
80,98 Rue Caulaincourt,48.889622767045005,2.3385214805602996,Métro Lamarck—Caulaincourt [12],Subway
81,19 rue de Constantine,48.859812449238994,2.3147303732359,Service d'information du Gouvernement,Capitol Building
82,Place de la République,48.867509591927,2.3637986183166,"Métro République [3,5,8,9,11]",Subway
83,72 Rue du Faubourg Saint-Martin,48.871879579418,2.3576641182252995,Mairie du 10ème Arrondissement,City Hall
84,Pyramide du Louvre,48.861018076911,2.3358714580536004,Pyramide du Louvre,Monument / Landmark
85,Place de la Madeleine,48.86995141168801,2.325325012207,"Métro Madeleine [8,12,14]",Subway
86,Place Balard,48.836854974727004,2.2785687446594,Métro Balard [8],Subway
87,69 Rue de Rennes,48.851578381283,2.331075668335,Métro Saint-Sulpice [4],Subway
88,Boulevard Raspail,48.839130580736,2.3306250572205003,"Métro Raspail [4,6]",Subway
89,116 Rue de Grenelle,48.857041326341,2.3201807844804,Mairie du 7ème Arrondissement,City Hall
90,"6, rue Albert de Lapparent",48.848648519493,2.3085182905197,Asiem,Convention Center
91,9 Place d'Iéna,48.863985310600995,2.2927550394150003,"Conseil économique, social et environnemental",Government Building
92,Rue de Réaumur,48.867566051533004,2.3463535308837997,Métro Sentier [3],Subway
93,46 rue Cambon,48.869302741098004,2.3278071864621,Potel et Chabot — Pavillon Cambon Capucines,Event Space
94,80 Boulevard Auguste Blanqui,48.830656372521,2.3465229352267003,Le Monde Interactif,Convention Center
95,Rue Molitor,48.845217186293,2.2618424892426003,"Métro Michel-Ange — Molitor [9,10]",Subway
96,68 Rue Michel-Ange,48.842336379341,2.259578704834,Métro Exelmans [9],Subway
97,10 rue Alfred Roll,48.887194206427004,2.3002566743551003,Ambassade du Togo,Embassy / Consulate
98,Place des Ternes,48.877953534841005,2.2980737686157005,Métro Ternes [2],Subway
99,14 Avenue Duquesne,48.85217939103,2.3088366233648996,Ministère des Affaires sociales et de la Santé,Government Building
100,83 Boulevard Brune,48.826054587890994,2.3130190372467,Station Didot [T3a],Light Rail
101,Rue du Temple,48.86514669050901,2.3599486363679,Rue du Temple,Road
102,4 Avenue de la Porte de Sèvres,48.834035969088,2.2743131406472,Héliport de Paris,Airport
103,Boulevard de la Villette,48.884183578613005,2.3676073551178,"Métro Stalingrad [2,5,7]",Subway
104,Place du 11 Novembre 1918,48.876161283398,2.358283996582,"Métro Gare de l'Est [4,5,7]",Subway
105,Rue Marcadet,48.8911535344,2.3429417610168,Rue Marcadet,Road
106,Avenue de Villiers,48.883964869947995,2.3043394088745,Métro Wagram [3],Subway
107,Rue de Rennes,48.848196670128004,2.3278570175171,Métro Rennes [12],Subway
108,Avenue des Champs-Élysées,48.867721315121,2.3137807846069,"Métro Champs-Élysées — Clémenceau [1,13]",Subway
109,1 Boulevard de Reuilly,48.839045843187996,2.3899126052856,Métro Dugommier [6],Subway
110,Rue d'Auteuil,48.847886021323994,2.2642779350281,"Métro Michel-Ange — Auteuil [9,10]",Subway
111,Boulevard Barbès,48.883770853396996,2.3502051830292,"Métro Barbès—Rochechouart [2,4]",Subway
112,145 rue Cardinet,48.887848570208,2.3141884803772004,Gare SNCF de Pont Cardinet,Train Station
113,Place Balard,48.836089,2.278233,Station Balard [T3a],Light Rail
114,Avenue de la Grande Armée,48.875321584451,2.2901451587677,Métro Argentine [1],Subway
115,18 rue de Martignac,48.858204,2.318611,Commissariat général à la stratégie et à la prospective,Government Building
116,82 Avenue Mozart,48.852446717020996,2.268049120903,Métro Jasmin [9],Subway
117,Boulevard Diderot,48.847307079774,2.3865008354187003,"Métro Reuilly—Diderot [1,8]",Subway
118,186 Rue du Faubourg Saint-Antoine,48.85029349914699,2.3838937282562003,Métro Faidherbe—Chaligny [8],Subway
119,186 Rue du Faubourg Saint-Martin,48.878645016262,2.3621678352356,Métro Château-Landon [7],Subway
120,Avenue Daumesnil,48.839642533708,2.3958027362823,"Métro Daumesnil [6,8]",Subway
121,Rue de la Boétie,48.873606861310996,2.3144888877869,"Métro Miromesnil [9,13]",Subway
122,68 Boulevard de Rochechouart,48.882920699269,2.3445296287537003,Métro Anvers — Sacré-Cœur [2],Subway
123,Quai de Bercy,48.827491948748,2.3908996582031,Porte de Bercy,Road
124,Place du 18 Juin 1940,48.842943180734,2.3228305578232002,"Métro Montparnasse–Bienvenüe [4,6,12,13]",Subway
125,2 Avenue Jean-Jaurès,48.882560878647006,2.3702681064606,"Métro Jaurès [2,5,7bis]",Subway
126,17 boulevard Morland,48.849865603514004,2.363062280135,Centre Administratif Morland,Government Building
127,"1, quai de Corse",48.855679899769,2.3469543457031,Tribunal de commerce de Paris,Courthouse
128,Cour de Rome,48.875632063015004,2.3246812820435,"Métro Saint-Lazare [3,12,13,14]",Subway
129,Place d'Iéna,48.86465829898,2.2937178611755,Métro Iéna [9],Subway
130,57 Rue La Fayette,48.87589314577,2.3441433906555,Métro Cadet [7],Subway
131,Place Denfert-Rochereau,48.833890706053,2.3321592807769997,"Métro Denfert-Rochereau [4,6]",Subway
132,1 Boulevard de Courcelles,48.881188597804005,2.3153632879257002,"Métro Villiers [2,3]",Subway
133,11 rue de Cambrai,48.896874097985,2.3797416687012003,Groupe Pierre & Vacances - Center Parcs,General Travel
134,Rue de l'Alboni,48.857472884907,2.2857677936554,Métro Passy [6],Subway
135,44 rue de la Bienfaisance,48.876686,2.314889,Espace Monceau,Meeting Room
136,129 Boulevard Vincent Auriol,48.833216261885006,2.3628222942352,Métro Nationale [6],Subway
137,Rue Brochant,48.890624472642,2.32008934021,Métro Brochant [13],Subway
138,94 Boulevard Saint Germain,48.851105379056996,2.3442721366882004,Métro Cluny—La Sorbonne [10],Subway
139,198 Avenue Jean Jaurès,48.888444679148996,2.3917472362518,Métro Porte de Pantin [5],Subway
140,Boulevard de la Villette,48.872082613623,2.3769092559814,"Métro Belleville [2,11]",Subway
141,Place de la Porte de Bagnolet,48.864488910128,2.4082159996033,Métro Porte de Bagnolet [3],Subway
142,Boulevard Vincent Auriol,48.836991228109,2.3727415471412003,Boulevard Vincent Auriol,Road
143,18 Avenue Kléber,48.871461610511,2.2933101654052996,Métro Kléber [6],Subway
144,Avenue du Général Leclerc,48.828035804266996,2.3269128799437997,Métro Alésia [4],Subway
145,Rue de Reuilly,48.842681089271004,2.3941940039872,Rue de Reuilly,Road
146,26 Rue De Sa. Pétersbourg,48.881966436708005,2.3257543147216,INPI,Government Building
147,259 Rue de Belleville,48.87540626061401,2.3989999294281,Métro Télégraphe [11],Subway
148,78 Rue de Varenne,48.855789578465995,2.3181917116336,"Ministère de l'Alimentation, de l'Agriculture et de la Pêche",Government Building
149,Boulevard Picpus,48.844652335246,2.4021220207213996,Métro Picpus [6],Subway
150,60 Boulevard Haussman,48.873525710405,2.328736782074,"Métro Havre-Caumartin [3,9]",Subway
151,106 rue de l'Université,48.860719146243,2.318986413622,LCP (La Chaîne Parlementaire - Assemblée nationale),Office
152,59 Avenue Kléber,48.866860301878006,2.2900915145874,Métro Boissière [6],Subway
153,5 Rue de l'Aqueduc,48.879982088428,2.3580962419510003,RER Magenta [E],Train Station
154,78 rue de Varenne,48.855748434636,2.3185140628883,Hôtel de Villeroy,Capitol Building
155,Place du Maréchal Juin,48.885319437262,2.29811668396,RER Pereire–Levallois [C],Train Station
156,72 Boulevard Voltaire,48.861058662524,2.3746132850647004,Métro Saint-Ambroise [9],Subway
157,25 rue de la Montagne Sainte-Geneviève,48.847222356059,2.3494809865952004,Ministère de l'Enseignement supérieur et de la Recherche,Government Building
158,1 Place d'Italie,48.832490753645,2.355640020707,Mairie du 13ème Arrondissement,City Hall
159,161 Boulevard de l'Hôpital,48.833053828949005,2.3560416698456,Commissariat Central du 13ème Arr.,Police Station
160,Rue de Rivoli,48.860868086319,2.3408442735672,Métro Louvre-Rivoli [1],Subway
161,9 avenue de la République,48.868421999999995,2.370131,Dentiste,Dentist's Office
162,10 place Adolphe Max,48.883185617167996,2.3299305428652004,Dr Cantini vétérinaire,Veterinarian
163,Avenue Parmentier,48.865194693227,2.3743772506714,Métro Parmentier [3],Subway
164,Boulevard Berthier,48.893911619031,2.3143815994262997,RER Porte de Clichy [C],Train Station
165,48 Avenue Mozart,48.855002219372,2.2697067260742,Métro Ranelagh [9],Subway
166,,48.885949808494,2.3737003451387997,police 19e,Police Station
167,Rue de Rennes,48.846896,2.326819,Métro Saint-Placide [4],Subway
168,Place Pigalle,48.882271609209994,2.3375558853149,"Métro Pigalle [2,12]",Subway
169,130 Boulevard Masséna,48.819863223359,2.3640775680542,Métro Porte de Choisy [7],Subway
170,Quai André Citroën,48.846276264836,2.2784614562987997,Métro Javel—André Citroën [10],Subway
171,Quai Branly,48.857021115176,2.2899842262268,RER Champ de Mars — Tour Eiffel [C],Train Station
172,34 avenue d'Iena,48.866225,2.2948060000000003,Bureau International des Expositions,Office
173,Boulevard Saint-Jacques,48.83290905132301,2.3370838165283,Métro Saint-Jacques [6],Subway
174,"1, Bd de Reuilly",48.839671,2.3995509999999998,Dc Anne Le Moal Bisalputra,Dentist's Office
175,Rue de Sèvres,48.851345410594995,2.3267197608948,"Métro Sèvres—Babylone [10,12]",Subway
176,33 Boulevard Voltaire,48.864573604624994,2.3686695098877,"Métro Oberkampf [5,9]",Subway
177,Avenue de Clichy,48.89425019694,2.3138022422791003,Métro Porte de Clichy [13],Subway
178,"3, rue de Tolbiac",48.831009247611,2.3772954940796,URSSAF,City Hall
179,77 Rue Raymond Losserand,48.833964859046,2.3180615901947,Métro Pernety [13],Subway
180,226 Rue de Rivoli,48.864637125405,2.3293054103851003,Métro Tuileries [1],Subway
181,Boulevard Beaumarchais,48.860903378263,2.3672533035278,Métro Saint-Sébastien — Froissart [8],Subway
182,Place Louis Armand,48.844355785895004,2.3743343353271,Gare SNCF de Paris-Lyon,Train Station
183,Place Gambetta,48.864940612458,2.3984098434448,"Métro Gambetta [3,3bis]",Subway
184,110 Rue de Grenelle,48.85692229000399,2.3213338851929,Ministère de l'Éducation Nationale,Government Building
185,Boulevard de Grenelle,48.853900969159994,2.2893404960632004,Métro Bir-Hakeim [6],Subway
186,12-14 Passage Charles Dallery,48.85418,2.37805,Commissariat Central du 11ème Arr.,Police Station
187,Place de la Nation,48.848648519493,2.3958134651183998,"Métro Nation [1,2,6,9]",Subway
188,Rue de Sèvres,48.848832082133995,2.321355342865,Métro Vaneau [10],Subway
189,37 Quai d'Orsay,48.862329152011995,2.3160874843597,Ministère des Affaires Étrangères et Européennes,Government Building
190,11 rue Galilée,48.867800804085,2.2921996314463,CNC - Centre national de la Cinématographie,Government Building
191,74 Boulevard de Grenelle,48.850427636735,2.2935461997986,Métro Dupleix [6],Subway
192,114-116 av du Maine,48.836192928741,2.3234152793884,Commissariat Central du 14ème Arr.,Police Station
193,70 Boulevard des Batignolles,48.882342162886,2.3215913772583,Métro Rome [2],Subway
194,Avenue Félix Faure,48.838706891561,2.2820663452148,Métro Lourmel [8],Subway
195,Rue Montgallet,48.844405210909,2.3898750543594,Métro Montgallet [8],Subway
196,Rue Botzaris,48.879590495795,2.3890542984009,Métro Botzaris [7bis],Subway
197,Boulevard Voltaire,48.854861034801,2.3851275444031,Métro Charonne [9],Subway
198,36 rue des Morillons,48.833322995621,2.2990635785318,Les Objets Trouvés,Police Station
199,Avenue Simon Bolivar,48.880183175345,2.3742055892944,Avenue Simon Bolivar,Road
200,Boulevard de clichy,48.883696774152,2.3329424858093,Métro Blanche [2],Subway
201,10 rue des Terres au Curé,48.824183000000005,2.37233924,MAS (Maison des Associations de Solidarité),Conference Room
202,Avenue Bosquet,48.85903992955999,2.303352355957,Avenue Bosquet,Road
203,Rue des Petits Carreaux,48.86664857504001,2.3471903800963996,Rue des Petits Carreaux,Road
204,24 Rue Saint-Victor,48.848571482885,2.3503856156306,Maison de la Mutualité,Convention Center
205,Place du Commerce,48.844719411640995,2.2936829924582995,Métro Commerce [8],Subway
206,104 Rue de Rivoli,48.858701113251,2.3474478721619,"Métro Châtelet [1,4,7,11,14]",Subway
207,Place de l'Étoile,48.874185498734995,2.2952950000762997,RER Charles de Gaulle–Étoile [A],Train Station
208,Rue de Dunkerque,48.880253731966,2.3564386367798,"RER Paris Nord [B,D]",Train Station
209,37 Boulevard Poniatowski,48.8325064967,2.3997831344604,Métro Porte de Charenton [8],Subway
210,92 boulevard Ney,48.898347281018,2.3474985701124,Préfecture de Police,Government Building
211,Place du Bataillon du Pacifique,48.840380987102,2.3790259573582,"Métro Bercy [6,14]",Subway
212,12 rue du Général Delestraint,48.841203,2.260135,Aude Devarenne - Osthéopathe,Doctor's Office
213,Place Pereire,48.884846753878,2.2978162765502996,Métro Pereire [3],Subway
214,Boulevard de Courcelles,48.879195372194005,2.3034381866455003,Métro Courcelles [2],Subway
215,Avenue de France,48.82945545124699,2.3769629001617,RER Bibliothèque François Mitterrand [C],Train Station
216,Boulevard de Belleville,48.8671143729,2.3828530311583997,Métro Ménilmontant [2],Subway
217,Rue d'Avron,48.851303052172,2.3982381820679,Métro Avron [2],Subway
218,112 avenue Kleber,48.864417085793,2.2876213177259,Centre d'affaires Paris Trocadero,Convention Center
219,Avenue Franklin Delano Roosevelt,48.872280203906,2.3100471496582,Métro Saint-Philippe-du-Roule [9],Subway
220,,48.840415067329,2.3180538629706002,Direction Générale à l'Emploi et à la Formation Professionnelle,Government Building
221,31 Rue Péclet,48.841235540461994,2.2999151422143997,Mairie du 15ème Arrondissement,City Hall
222,92 Rue la Fayette,48.877311436391004,2.3490679264069,Métro Poissonnière [7],Subway
223,93 rue de Belleville,48.874086707453,2.3852777481079,Métro Pyrénées [11],Subway
224,66 Boulevard Saint-Germain,48.850060522481,2.3486065864562997,Métro Maubert—Mutualité [10],Subway
225,100 avenue Kennedy,48.852009021214,2.2803497314452996,Péniche River's King,Boat or Ferry
226,2 Rue Mirabeau,48.847088209883005,2.2728610038757004,Métro Mirabeau [10],Subway
227,58 Rue d'Amsterdam,48.879632830282,2.3269987106323,Métro Liège [13],Subway
228,71 Avenue de Saint-Ouen,48.893022841111005,2.3275136947632005,Métro Guy Moquet [13],Subway
229,Avenue de Breteuil,48.848311763415005,2.3117309370357,Avenue de Breteuil,Road
230,Rue Jussieu,48.846108578893,2.3547247052193,"Métro Jussieu [7,10]",Subway
231,Place Louis-Armand,48.843836820307,2.3739266395569,"RER Gare de Lyon [A,D]",Train Station
232,Place de la Porte de Saint-Cloud,48.837626467944006,2.2562634944916002,"Arrêt Porte de Saint-Cloud [PC1,22,62,72,175,N12,N61]",Bus Station
233,Rue de Tolbiac,48.82629120787,2.3571681976318,Métro Tolbiac [7],Subway
234,21 rue Balzac,48.875451615033,2.3022743620232,Étoile Saint-Honoré,Meeting Room
235,Place Léon Blum,48.857952885779,2.3799133300781,Métro Voltaire [9],Subway
236,Boulevard Picpus,48.841340767820995,2.4009096622467,Métro Bel-Air [6],Subway
237,Boulevard Jourdan,48.821498552552995,2.3333287239075,Station Montsouris [T3a],Light Rail
238,41 quai du Président Roosevelt,48.834074322788,2.2652435302733998,Centre de conférences Microsoft,Conference Room
239,Boulevard Garibaldi,48.847522418570996,2.3029339313507005,Métro Cambronne [6],Subway
240,"1, rue Cabanis",48.828622031527004,2.3390579223633,CH Sainte-Anne,Hospital
241,Rue de Lappe,48.853339067291,2.3734927894861,Rue de Lappe,Road
242,85 Quai d’Austerlitz,48.841418440353,2.36656665802,Gare SNCF de Paris-Austerlitz,Train Station
243,48 Bis Boulevard de Bercy,48.839102334902,2.3830246925354,Gare SNCF de Paris-Bercy,Train Station
244,"46-68, rue Boileau",48.842334,2.26303,Ambassade du Vietnam,Embassy / Consulate
245,Avenue du Général Leclerc,48.823130296535,2.3255234956741004,Station Porte d'Orléans [T3a],Light Rail
246,89 Avenue Mozart,48.852143643257996,2.2677573754937,Arrêt Jasmin [22],Bus Station
247,Place de la Porte de Châtillon,48.824684289033,2.3188877105712997,Station Jean Moulin [T3a],Light Rail
248,Place du Carrousel,48.861708027847,2.332878112793,Arc de Triomphe du Carrousel,Monument / Landmark
249,146 Avenue Jean Jaurès,48.887076087102,2.3865115642548,Métro Ourcq [5],Subway
250,Boulevard Massena,48.819057901255,2.3601025342941,Station Porte d'Italie [T3a],Light Rail
251,74 boulevard Port Royal,48.838198459820006,2.3431777954102,HIA du Val-de-Grâce,Hospital
252,Rue Cler,48.857261118353,2.3062062263489,Rue Cler,Road
253,21 Rue Beaubourg,48.861213946302,2.3535418510437003,Métro Rambuteau [11],Subway
254,37 Avenue Mac-Mahon,48.878594,2.2942150000000003,"Arrêt Ternes — Mac Mahon [43,92,93]",Bus Station
255,Rue de Vaugirard,48.837238074674,2.2964000701904,Métro Convention [12],Subway
256,4 rue Lasson,48.843166791561,2.406127693006,Maternité Les Bluets,Medical Center
257,Boulevard du Port-Royal,48.839953233649,2.3370784521103,RER Port-Royal [B],Train Station
258,100 Rue d'Avron,48.852686742130004,2.4061346054077,Métro Maraîchers [9],Subway
259,96 Avenue Jean Jaurès,48.885037238764,2.3793983459473,Métro Laumière [5],Subway
260,Rue Baste,48.880465401232996,2.3748922348022004,Métro Bolivar [7bis],Subway
261,25-28 Rue du Docteur Roux,48.841150189515,2.3098705267115,Institut Pasteur,College Science Building
262,33 rue Barbet-de-Jouy,48.852150213828004,2.3180294036865,Conseil Régional IDF Barbet,Government Building
263,Quai André Citroën,48.839134111464006,2.270570397377,RER Pont du Garigliano — Hôpital Européen Georges Pompidou [C],Train Station
264,Boulevard Voltaire,48.856075209097995,2.3831105232239,Boulevard Voltaire,Road
265,71 avenue Henri Martin,48.86389604463199,2.2767448425293,Mairie du 16ème Arrondissement,City Hall
266,2 rue de Viarmes,48.862802048197004,2.3428130149841,CCI Paris Île-de-France - Bourse du commerce,Office
267,Avenue Daumesnil,48.837223951225994,2.4019396305083998,Avenue Daumesnil,Road
268,Avenue du Maine,48.838650399399995,2.3223853111267005,Métro Gaîté [13],Subway
269,5 avenue Velasquez,48.879688100561,2.3129666563337996,Scam,Convention Center
270,42 Avenue Félix Faure,48.841079504782,2.2877740859985,Métro Boucicaut [8],Subway
271,Rue de Châteaudun,48.876048383519,2.3377811908722,Métro Notre-Dame de Lorette [12],Subway
272,27 rue Saint-Ferdinand,48.877009161138,2.2916208428778,HERTZ Car Rental,Rental Car Location
273,40-50,48.867537821738004,2.2709083557129,Ambassade de Russie,Embassy / Consulate
274,3 rue ledantec,48.829843,2.346963,Lekerc,Boat or Ferry
275,31 rue de Moscou,48.889126880587995,2.3209286877346,Laboratoire d'analyses Akiki,Medical Center
276,Rue de Tolbiac,48.827039908500005,2.366738319397,Métro Olympiades [14],Subway
277,Square du Vert Galant,48.857402296155,2.3409461975098,Les Vedettes du Pont Neuf,Boat or Ferry
278,62 av Mozart,48.854171,2.269136,Commissariat Central du 16ème Arr.,Police Station
279,8 Rue Vivienne,48.86740406101,2.3393120028223,CNIL - Commission nationale de l'informatique et des libertés,Government Building
280,102 Boulevard Auguste Blanqui,48.831136374271004,2.3433816432952996,Métro Glacière [6],Subway
281,50 Boulevard Auguste Blanqui,48.829801528245,2.3504304885864,Métro Corvisart [6],Subway
282,Rue de Rivoli,48.861806843570996,2.3380708694458,Rue de Rivoli,Road
283,Quai Saint-Michel,48.85339269166099,2.345666885376,"RER Saint-Michel — Notre-Dame [B,C]",Train Station
284,Passage Montgallet,48.843924920488995,2.3878248893226,Passage Montgallet,Road
285,191 rue de charenton,48.840007,2.3883799999999997,Antenne de police générale,City Hall
286,Place de l'Alma,48.86418189137299,2.3008686304092003,Flamme de la Liberté,Monument / Landmark
287,173 avenue Victor Hugo,48.866366271197,2.2770667076111,Amassade du Nigeria a Paris,Government Building
288,Porte d'Issy-les-Moulineaux,48.834360339823,2.2839975357056,Station Desnouettes [T3a],Light Rail
289,Boulevards des Maréchaux,48.82982271655501,2.2956544160842998,Station Georges Brassens [T3a],Light Rail
290,Quai de Charenton,48.826696824082,2.3902395928575,navette fluviale,Boat or Ferry
291,188 rue Cardinet,48.891028837599,2.3194842804677003,"Arrêt Brochant - Cardinet [31,54,66,74,N15,N51]",Bus Station
292,56 Rue du Faubourg du Temple,48.86995141168801,2.3710513114929,Métro Goncourt [11],Subway
293,,48.880067741033,2.2825903706216,Parking - Bus Beauvais,Bus Line
294,59 Boulevard Vincent Auriol,48.835042360654,2.3686505908267,DGCCRF,Government Building
295,63 Boulevard Richard Lenoir,48.860338704164,2.3720598220825,Métro Richard-Lenoir [5],Subway
296,Rue Tiquetonne,48.864746522113,2.3475873470306,Rue Tiquetonne,Road
297,Place Louis Armand,48.84468057795,2.3729610443115,"Métro Gare de Lyon [1,14]",Subway
298,275 rue saint jacques,48.841035,2.3409419999999996,Paris American Academy,Embassy / Consulate
299,"11, rue Chardon-Lagache",48.844977125377,2.2688484191894998,Hôpital Sainte Perine,Hospital
300,Rue de la Verrerie,48.858235237082006,2.3522114753723,Rue de la Verrerie,Road
301,Gare de Paris-Montparnasse,48.839921457607005,2.3208725452423,Salon Grand Voyageur,Travel Lounge
302,Boulevard Raspail,48.842096304615005,2.3289299011230002,Métro Vavin [4],Subway
303,Rond-Point du Pont Mirabeau,48.846533970559996,2.2772008180617997,RER Javel [C],Train Station
304,Rue Amiral Mouchez,48.825314304501,2.3415532829618,Rue Amiral Mouchez,Road
305,Rue de Rivoli,48.855256350596,2.3604726791382005,Métro Saint-Paul — Le Marais [1],Subway
306,Boulevard de Belleville,48.869090436818,2.3803853988647004,Métro Couronnes [2],Subway
307,11 rue Drouot,48.873154,2.340766,Bibliothèque Drouot,Library
308,58 Avenue de Flandre,48.888437624647,2.3739266395569,Métro Riquet [7],Subway
309,3 Avenue Octave Gréard,48.856378279388,2.2931542815653,Alcatel-Lucent HQ,Office
310,32 Rue d'Avron,48.851814880720006,2.4011483788490002,Métro Buzenval [9],Subway
311,63 Boulevard Vincent Auriol,48.834953555134,2.3680955171585,Métro Chevaleret [6],Subway
312,7 Rue Foyatier,48.885097206077994,2.3426198959351,Funiculaire de Montmartre,Light Rail
313,Rue Mouffetard,48.842632940649004,2.3497009277344,Rue Mouffetard,Road
314,Rue Legendre,48.887675980604,2.3196897186617003,Rue Legendre,Road
315,35 avenue Montaigne,48.866839804699,2.3061193698387004,Ambassade du Canada,Embassy / Consulate
316,"57, rue de Babylone",48.851666627472,2.3167848587036,Hémicycle du Conseil régional IDF,Government Building
317,Port de Javel,48.841700884911006,2.2714984416962,Thalassa Boat,Boat or Ferry
318,Quai d'Austerlitz,48.842618818722,2.3648500442505,"Métro Gare d'Austerlitz [5,10]",Subway
319,23-37 rue Bergère,48.872721999999996,2.3435,Hôtel Bergère Opéra,Hotel
320,Avenue de la Porte de Vanves,48.827689715073994,2.3054337501526003,Métro Porte de Vanves [13],Subway
321,20 avenue de wagram,48.876594,2.297047,Dr Pannetier,Doctor's Office
322,2 rue jules cesar,48.848620279028,2.3681545257568,SIAAP,Government Building
323,141 bd mortier,48.872529706161004,2.4048343142344,Direction Générale de la Sécurité Extérieure,Government Building
324,1 Boulevard de Strasbourg,48.869400954053,2.3542499542236,"Métro Strasbourg—Saint-Denis [4,8,9]",Subway
325,Rue du Commerce,48.848733240796,2.2973442077637003,Rue du Commerce,Road
326,Route de la Porte des Sablons à la Porte Maillot,48.877722585061996,2.2709546282129,Petit Train du Jardin d'Acclimatation,Train
327,Avenue Foch,48.872844643985005,2.2840458963379,Avenue Foch,Road
328,Boulevard Lefebvre,48.828671472067,2.3008418083191002,Station Brancion [T3a],Light Rail
329,Rue Robert Esnault-Pellerie,48.86273146696,2.3144030570984,RER Invalides [C],Train Station
330,Perouse,48.869273,2.293217,Ipc,Medical Center
331,20 Avenue du Général Leclerc,48.831334126213996,2.3298525810242,Métro Mouton-Duvernet [4],Subway
332,6 Boulevard Haussmann,48.872012045476,2.339551448822,"Métro Richelieu—Drouot [8,9]",Subway
333,Boulevard Saint-Michel,48.846742252299,2.3404097557068,RER Luxembourg [B],Train Station
334,Rue Lecourbe,48.842138670827,2.3010778427124,Rue Lecourbe,Road
335,7 Place du 25 Août 1944,48.822095452077,2.3252391815186,"Arrêt Porte d'Orléans - Métro [125,128,187,188,194,197,295,297,299]",Bus Station
336,282 Avenue Daumesnil,48.834865279491,2.4054908752441,Métro Porte Dorée [8],Subway
337,Avenue de Suffren,48.854663375733004,2.2953701019287003,Avenue de Suffren,Road
338,Place de la Porte de Versailles,48.832379373514996,2.2879242897034,Métro Porte de Versailles [12],Subway
339,4 rue du Texel,48.837884762954,2.319378760866,Hadopi,Government Building
340,Avenue Henri Martin,48.864354810214,2.2721207141876,RER Avenue Henri Martin [C],Train Station
341,Rue de Boulainvilliers,48.856555223371004,2.2751462459564,RER Boulainvilliers [C],Train Station
342,Rue de Vaugirard,48.837356,2.296671,"Arrêt Convention Vaugirard [39,62,80]",Bus Station
343,"65, Avenue Franklin Roosevelt",48.871840999999996,2.310106,Consulat-Général du Brésil à Paris,Government Building
344,16 avenue Wagram,48.876061,2.296809,Salons Etoile Wagram,Meeting Room
345,2 place Baudoyer,48.856174035942004,2.3557466268539,Mairie Du 4ème Arr.,City Hall
346,9 Place d'Iéna,48.86400122449,2.2929604801512005,Palais d'Iéna,Government Building
347,Avenue de New York,48.862241444847,2.294233286178,Port Debilly,Boat or Ferry
348,25 passage Dubail,48.873610719256,2.3604646126672004,Pole Emploi,Government Building
349,1 Place du Palais Royal,48.862644067221005,2.3369597825048998,Conseil d'État,Government Building
350,1 Rue Molitor,48.845033610402005,2.2664451599121,Métro Chardon-Lagache [10],Subway
351,18 place des 5 marthyrs du lycee buffon,48.83951307178,2.3172054292336,Ministere du Travail (dicom),Government Building
352,139 Boulevard de l'Hôpital,48.835613852011996,2.3588418960571,Métro Campo-Formio [5],Subway
353,Esplanade de la Rotonde,48.897649956319,2.3856210708617995,Métro Porte de la Villette [7],Subway
354,26 rue Desaix,48.852912673863,2.293223956426,DILA (Direction de l'Information Légale et Administrative),Government Building
355,2 rue de Harlay,48.85680602157001,2.3433678122155,Maison Du Barreau,Convention Center
356,Rue Lepic,48.885912048925,2.334680557251,Rue Lepic,Road
357,2 rue de pyramides,48.864213673968,2.3322851054495,Cityrama,General Travel
358,rue dulong,48.885834512416004,2.3160352568345,Rue dulong,Road
359,37 rue Saint Lambert,48.836792649721005,2.2934159157917002,Maternité Catholique Sainte Félicité,Hospital
360,4 Rue d'Oradour-sur-Glane,48.831732,2.281487,Station Porte d'Issy [T2],Light Rail
361,,48.851686166801,2.3145742847918,Arrêt 82 92 87 St. François Xavier,Bus Line
362,Place de l'École Militaire,48.854325,2.305554,"Arrêt École Militaire [28,80,82,87,92]",Bus Station
363,Rue de Rome,48.884007200732,2.3185229301452996,Rue de Rome,Road
364,Place des Abbesses,48.884303515217,2.3385483026505,Métro Abbesses [12],Subway
365,Rue Saint-Jacques,48.843494370681,2.3416543006897004,Rue Saint-Jacques,Road
366,Avenue Gambetta,48.864912381182,2.3984527587891002,"Arrêt Gambetta – Mairie du 20e [26,60,61,64,La Traverse]",Bus Station
367,Rue Lamarck,48.89065268941,2.3336505889893,Rue Lamarck,Road
368,,48.825903557602,2.3359822334333,OrlyBus,Bus Line
369,Avenue de la Grande Armée,48.875314528097,2.2901129722595,Avenue de la Grande Armée,Road
370,144 rue des Pyrénées,48.85927327178,2.4022991934476,"Arrêt Pyrénées – Bagnolet [26,64,76]",Bus Station
371,Rue Santos-Dumont,48.832736023855,2.3043769598007002,Rue Santos-Dumont,Road
372,26 Av du Dr Arnold Netter,48.842411375078,2.4064757180276,Hôpital Armand Trousseau,Hospital
373,,48.835489,2.40621606,Kinesitherapeute,Medical Center
374,71 Boul. Diderot,48.847274703688,2.3857438764332004,Vélib' [12012],Bike Rental / Bike Share
375,48 rue de la Roquette,48.854726208782,2.3728026535154,OFII,Government Building
376,25 Avenue des Gobelins,48.836764936987,2.3517823219299,Métro Les Gobelins [7],Subway
377,Rue Gutenberg,48.84284212123,2.2797717154026,Rue Gutenberg,Road
378,Rue Poussin,48.848706302798995,2.2633471056467998,Rue Poussin,Road
379,88 Rue du Faubourg Saint-Antoine,48.851288932690004,2.37628698349,Métro Ledru-Rollin [8],Subway
380,1 Rue Gouthière,48.820862793763,2.3508542776107997,Station Poterne des Peupliers [T3a],Light Rail
381,,48.826538676831,2.3662313267390003,Inserm,Government Building
382,"9, Bd Murat",48.846273,2.2578669999999996,Perez-Rosenberg,Dentist's Office
383,Boulevard de l'Hôpital,48.839356546831,2.3612880706787003,Métro Saint-Marcel [5],Subway
384,53 rue de la victoire,48.875309,2.3351083,Centre d'affaires Paris Victoire,Convention Center
385,12 Square Desnouettes,48.834506009463,2.2843894580806,Vélib' [15-61],Bike Rental / Bike Share
386,139 Boulevard de Ménilmontant,48.867001452605,2.3829388618469,"Arrêt Belleville - Ménilmontant [96, N12,N23]",Bus Station
387,164 Rue de Vaugirard,48.844412271620996,2.3176217079162997,Métro Falguière [12],Subway
388,,48.890015241506994,2.3335904911133,Rue Damrémont,Road
389,Allée Jean Sablon,48.857772,2.268664,Allée Jean Sablon,Road
390,36 Quai des Orfèvres,48.85560407496801,2.3434601882746002,Direction de la Police Judiciaire,Police Station
391,44 Avenue victor hugo,48.871278130844004,2.2890615463257005,Arrêt Victor Hugo - Paul Valéry [52],Bus Station
392,Centre Pompidou,48.860734727339,2.3519660912732996,Bibliothèque Kandinsky,Library
393,41 Avenue Felix Faure,48.841035760551,2.2878540802694,Vélib' [15-69],Bike Rental / Bike Share
394,,48.879672006165,2.3084709435772,Consulado Geral de Portugal,Government Building
395,Cour de Vincennes,48.847264717933996,2.4087309837341,Métro Porte de Vincennes [1],Subway
396,12 quai de la Charente,48.896753951365994,2.3833577386377,Embarcadère Icade,Boat or Ferry
397,151 Avenue Parmentier,48.871067468141,2.3706692457581,Vélib' [10-113],Bike Rental / Bike Share
398,Place de la Bastille,48.852658503941,2.3688840866089,"Métro Bastille [1,5,8]",Subway
399,Quai de la Loire,48.8853617669,2.3748493194580003,Quai de la Loire,Road
400,Rue Montmartre,48.866881474512,2.3441970348358,Rue Montmartre,Road
401,139 Rue de Belleville,48.875201626308005,2.3894941806793,Métro Jourdain [11],Subway
402,81 rue de la Convention,48.8364456579,2.2935007189897,Arrêt Boucicaut [62],Bus Station
403,25 boulevard de picpus,48.842909999999996,2.401242,Centre Medico-social Elio Habib,Medical Center
404,7 bis Rue de Trétaigne,48.891822999999995,2.342007,Local du PS 18ème,Meeting Room
405,Rue de Chabrol,48.876893817185,2.3543864925293,Rue de Chabrol,Road
406,Avenue de Versailles,48.840853546459996,2.2651362419127996,Avenue de Versailles,Road
407,2 place de la Concorde,48.86664857504001,2.3224067687987997,Hôtel de la Marine,Capitol Building
408,Boulevard Ney,48.897795,2.344637,"Arrêt Porte de Clignancourt [PC3,56,85,137,166,255,341, N14,N44]",Bus Station
409,Avenue Gambetta,48.868356479329,2.4014246463776003,Métro Pelleport [3bis],Subway
410,247 rue de Tolbiac,48.826337054750006,2.3421049578641,Clinique Vétérinaire Drs Denizet Jacob,Medical Center
411,200 Avenue d'Italie,48.819057901255,2.3602044582367,Métro Porte d'Italie [7],Subway
412,Rue du Faubourg-Saint-Antoine,48.850625691106,2.382531558958,Rue du Faubourg-Saint-Antoine,Road
413,Boulevard Pereire,48.882271609209994,2.2923016548157,Boulevard Pereire,Road
414,Place Tristan Bernard,48.87880123705,2.2916442390466,Laboratoire d'analyse medicale Saint-Ferdinand,Medical Center
415,44 Avenue de la Porte d'Ivry,48.821297229807996,2.3697102069855,Métro Porte d'Ivry [7],Subway
416,40 avenue Vellefaux,48.875833,2.3703060000000002,Commissariat Paris 10,Police Station
417,4 rue Beaurepaire,48.871897114275,2.367008435638,Dr Isabelle Klère,Doctor's Office
418,80 Av Daumesnil,48.844181673468,2.3817466160206,Commissariat Central du 12ème Arr.,Police Station
419,18 rue du Sergent Bauchat,48.844840825023006,2.3923440962012004,Hôpital des Diaconesses,Hospital
420,Place Valhubert,48.843982000000004,2.36455,"Arrêt Gare d'Austerlitz [24,57,61,63,89,91,N01,N02,N31,N131,N133]",Bus Station
421,50 rue pierre charon,48.86916001888601,2.3024949821917997,Dentiste Pisson,Dentist's Office
422,19 rue pot de fer,48.842889890429,2.3478371285967996,"Caisse D'Allocation Familiale - ""Pot De Fer """,Government Building
423,119 Avenue de Flandre,48.890779664671,2.3769307136536004,Métro Crimée [7],Subway
424,10 rue de Bassano,48.868426281602,2.296740633333,Orange Rive Droite,Office
425,Rue de la Villette,48.876489441987,2.3876515401851,Rue de la Villette,Road
426,,48.819000736349004,2.3446978992716003,Maison du Sport,Government Building
427,21 Place du Panthéon,48.846346819577,2.344719883493,Mairie du 5ème Arrondissement,City Hall
428,54 rue de Varennes,48.854772616506004,2.3219938923479,Maison De La Recherche,Government Building
429,8 blvd du bois le pretre,48.899595743656995,2.3203936315887,Fourriere Porte Pouchet,Parking
430,Rue du Soleil,48.875052532349,2.3947341248147995,Rue du Soleil,Road
431,,48.826459644526,2.3481419199649,Rue De L'espérance,Road
432,47 boulevard de l'Hôpital,48.835401992999,2.3637771606445,Institut du Cerveau et de la Moelle épinière (ICM),Office
433,7 square Max Hymans,48.840889181854,2.3177618632542996,ARCEP,Government Building
434,Place de la Bastille,48.852493,2.368994,"Arrêt Bastille [20,29,65,69,87,91,Bb,N01,N02,N11,N16]",Bus Station
435,75016,48.867555122415,2.2857216049895,Avenue Raymond Poincare,Road
436,7 Place de Fontenoy,48.849665165657996,2.3061740398407005,UNESCO,Government Building
437,Rue de Charonne,48.85627992163,2.3922514915466,AGECA,Meeting Room
438,1 Rue Pau Casals,48.831108123929994,2.3773813247681,Vélib' [13-54],Bike Rental / Bike Share
439,"4, rue Boucry",48.893958990304,2.3623539204137005,Centre Des Impots,Government Building
440,,48.859415000000006,2.4095299999999997,Dr. Richemond,Medical Center
441,Île aux Cygnes,48.850035,2.279684,Statue de la Liberté,Monument / Landmark
442,50 rue Henry Farman,48.83491773608,2.2714481968481,Direction Générale de l'Aviation Civile,Government Building
443,90 Rue de la Chapelle,48.897254975399,2.3592281341552996,Métro Porte de la Chapelle [12],Subway
444,Quai de Valmy,48.878002926688005,2.366019487381,Écluse Valmy,Boat or Ferry
445,Rue d'Alésia,48.829441325605,2.3221707344055,Rue d'Alésia,Road
446,Boulevard Saint-Germain,48.852192571535,2.3397016525269,Boulevard Saint-Germain,Road
447,32 avenue Raphaël,48.857361,2.266159,Ambassade d'Afghanistan / سفارت افغانستان,Embassy / Consulate
448,"24, rue Edgar Faure",48.851996068231,2.2951901388062,Fat Tire Bike Tours - Paris,Bike Rental / Bike Share
449,33 boulevard barbès,48.887849354919005,2.3495255106509,Laboratoire Radios,Medical Center
450,Rue de la Convention,48.839384792521,2.2917652130127,Rue de la Convention,Road
451,,48.862105,2.282637,Rue Petrarque,Road
452,101 Quai Branly,48.856176578436006,2.2907771552212997,CIDJ,Library
453,Boulevard Henri IV,48.851636119076005,2.3642263277131,Garde Républicaine,Government Building
454,250 Rue de Vaugirard,48.839737287074,2.3026992782817004,Commissariat Central du 15ème Arr.,Police Station
455,Avenue de Clichy,48.889086634678,2.322793006897,Avenue de Clichy,Road
456,55 Boulevard de Port-Royal,48.837659346737006,2.3437347663784,Caserne des Pompiers (Port-Royal),Fire Station
457,12 Rue Carpeaux,48.891210361084006,2.3322406002337,Caserne des Pompiers (Montmartre),Fire Station
458,24 Rue Blanche,48.878589,2.331722,Caserne des Pompiers (Rue Blanche),Fire Station
459,188 Rue de Valmy,48.880902848214,2.3680901527405,Caserne des Pompiers (Château-Landon),Fire Station
460,Quai des orfevres,48.85527154108,2.3426130208391003,Paris En Seine,Boat or Ferry
461,rue Claude Debussy,48.884501057231,2.2888040542602996,Etat-Major de la Brigade de Sapeurs-Pompiers de Paris,Fire Station
462,6 Place Violet,48.844506367879,2.2904948600891,Caserne des Pompiers (Grenelle),Fire Station
463,Rue de Tolbiac,48.825860346776,2.3455166816711,Arrêt Vergniaud [62],Bus Line
464,Rue d'Amsterdam,48.878210194097,2.3268361962184,Rue d'Amsterdam,Road
465,82 Rue Henry Farman,48.833339851809995,2.2687196731567,Bouygues Telecom - Sequana,Office
466,95 rue Michel Ange,48.840260401014994,2.2582912445068,Centre De Gérontologie Henry Dunant,Hospital
467,14 rue Saint-Dominique,48.858990598198005,2.3208277364157004,Ministère de la Défense SGA,Government Building
468,quai de Seine,48.884648628471005,2.3719551177215,Navette MK2 - Zéro de Conduite,Boat or Ferry
469,Rue Henry Farman,48.834776,2.271273,Station Henri Farman [T2],Light Rail
470,,48.825545217479,2.2998509582252997,Insee,Government Building
471,rue de Ponthieu,48.87153217943499,2.306764125824,Rue de Ponthieu,Road
472,Av. Jean Jaurès,48.885912,2.382234,"Arrêt Jean Jaurès - Lorraine [60, N13, N43, N45]",Bus Station
473,26 Rue Louis Blanc,48.880804070198,2.366201877594,Commissariat Central du 10ème Arr.,Police Station
474,,48.883514686197,2.3097134527067005,Laboratoire d Analyses Medicales,Medical Center
475,60 Rue de Caumartin,48.875243964509,2.3291337490082,RER Haussmann — Saint-Lazare [E],Train Station
476,Rue au Maire,48.864715999999994,2.35581,Rue au Maire,Road
477,12 rue Auguste Laurent,48.857889709075,2.3813329729398,Croix Rouge Française,Medical Center
478,Rue Raymond Losserand,48.834978272285994,2.3199820518494,Rue Raymond Losserand,Road
479,Boulevard des Italiens,48.871207561562,2.3355603218079,Boulevard des Italiens,Road
480,1 rue d'Alésia,48.827330670108005,2.3357712524412997,Arrêt René Coty Bus Ligne 62,Bus Station
481,Rue Lauriston,48.867165368492,2.2886372542698,Rue Lauriston,Road
482,Boulevards des Maréchaux,48.827407191512,2.3066461086273,Station Porte de Vanves [T3a],Light Rail
483,Avenue Gambetta,48.871899136233,2.4043536186218,Métro Saint-Fargeau [3bis],Subway
484,1 rue de la Pierre Levée,48.866197329924,2.3710722567034996,CPAM Paris,Government Building
485,Rue des Canettes,48.851837051684,2.3335202025894,Rue des Canettes,Road
486,,48.873739539195995,2.3058586611501,Rue De Berri,Road
487,Rue Saint-Maur,48.863656073268004,2.3787975311279,Rue Saint-Maur,Road
488,66-78 Boulevard Gouvion-Saint-Cyr,48.878475674757006,2.2837829589844,"Arrêt Porte Maillot - Palais des Congrès [PC1,PC3,73,82,244,N11,N24,N153]",Bus Station
489,Avenue Gambetta,48.871077346927,2.4046776745006,Avenue Gambetta,Road
490,Ave. de la Porte Molitor,48.844871215783,2.2573041915894,Arrêt Porte Molitor [PC1],Bus Station
491,57 Boulevard des Invalides,48.84844116510801,2.3161100741147003,Ministère des Affaires Étrangères,Government Building
492,Rue Louis Armand,48.833314,2.276873,Station Suzanne Lenglen [T2],Light Rail
493,,48.88808820099,2.3543154995582003,Rue Doudeauville,Road
494,3 rue du Chateau d'eau,48.868936,2.362389,Bourse Du Travail,Convention Center
495,Avenue Frochot,48.881502567694,2.338097691536,Avenue Frochot,Road
496,Place de la Concorde,48.86547700368,2.3211193084717,Obélisque de la Concorde,Monument / Landmark
497,Rue du Sentier,48.869790029312,2.346214757905,Rue du Sentier,Road
498,56 rue de Lille,48.859537943738005,2.3263104534443997,Caisse des Dépôts et Consignations,Office
499,120 rue Tolbiac,48.826371450787,2.3605796639849,"Arrêt Choisy-Tolbiac [62,64]",Bus Station
500,,48.865006,2.261875,Barque 79,Boat or Ferry
501,,48.84757718081101,2.2658421091139,Radiologie d'Auteuil,Medical Center
502,3 Boulevard Serurier,48.87710680987799,2.4064350128173997,"Métro Porte des Lilas [3bis,11]",Subway
503,Place Ledit De Nantes,48.888522278607,2.3770380020142,Vélib' [19-125],Bike Rental / Bike Share
504,69 rue de Varenne,48.854839,2.3178650000000003,Hotel de Clermont,Government Building
505,,48.828282903245004,2.3923455436726,Fourriere de Bercy,Police Station
506,"14, rue des Cévennes",48.843734344697,2.2764420739025,Direction de la protection judiciaire de la jeunesse,Government Building
507,Rue de Turenne,48.8591191042,2.3648095135958,Rue de Turenne,Road
508,Rue Molitor,48.845317363480994,2.2614114921125,Rue Molitor,Road
509,,48.861441,2.345329,CNES,Government Building
510,Boulevard du Montparnasse,48.842760037815,2.3270630836487003,Boulevard du Montparnasse,Road
511,,48.880576748349,2.2946858980926,Rue Pierre Demours,Road
512,Rue Saint-André des Arts,48.853461520050004,2.3397961600603,Rue Saint-André des Arts,Road
513,,48.866277435466,2.3717472872599,Rue Jean-Pierre Timbaud,Road
514,Rue Pétion,48.858968073723,2.3811789126594998,Rue Pétion,Road
515,Port de Suffren,48.859787669915,2.327508633455,Batobus [Tour Eiffel],Boat or Ferry
516,Rue de lancry,48.872019292362005,2.3614119883653997,Rue de Lancry,Road
517,,48.859653,2.227762,Allée du Bord de l'Eau,Road
518,4 Boulevard Berthier,48.894241539928,2.3135106461844,Vélib' [17-106],Bike Rental / Bike Share
519,39 rue goferoy cavaignac,48.856357570993005,2.380428314209,Centre Des Finances Publiques,Government Building
520,Corentin cariou,48.896734674352,2.383233,On The Boat !,Boat or Ferry
521,Rue de Lévis,48.883344014334,2.3142099380492995,Rue de Lévis,Road
522,85 Boulevard Saint-Marcel,48.8368,2.3518630000000003,"Arrêt Les Gobelins [27,47,83,91,N01,N02,N15,N22]",Bus Station
523,246 boulevard Saint-Germain,48.857156175033,2.3247297499762003,"Ministère de l'Écologie, du Développement durable, des Transports et du Logement",Government Building
524,,48.87202352561,2.3385195155604,Centre Médical Haussmann,Doctor's Office
525,13 Passage Abel Leblanc,48.846098044138,2.3817641123530002,Établissement Français du Sang,Hospital
526,Rue Rottembourg,48.837740338488,2.403946666428,Cabinet Du dr Mohanna,Doctor's Office
527,1 rue Saint-Antoine,48.85323032415,2.3681223392487003,Docteur Jeanson,Doctor's Office
528,18-20 rue Faidherbe,48.852468172715,2.38346129107,Bibliothèque Faidherbe,Library
529,Rue de Passy,48.857741121256,2.279577255249,Rue de Passy,Road
530,Rue de Fécamp,48.835197330198,2.3993374277671,Rue de Fécamp,Road
531,,48.823619914686006,2.3210052121886,Boulevard Brune,Road
532,30 Rue de Cambrai,48.896202049253,2.3816772479714,Vélib' [19-33],Bike Rental / Bike Share
533,Avenue Montaigne,48.866690920479,2.3057770729065,Avenue Montaigne,Road
534,,48.856454770371,2.3572673757614,Rue du Roi de Sicile,Road
535,,48.849953,2.268031,Rue george sand,Road
536,130 boulevard Excelmans,48.846845028570996,2.2597784714286,Cabinet du Docteur Levy,Doctor's Office
537,95 avenue de France,48.83240740668101,2.3799345605801,"Direction de la Jeunesse, de l'Éducation Populaire et de la Vie Associative",Government Building
538,Rue Gros,48.851168916929,2.2751140594482,Rue Gros,Road
539,221 avenue jean jaurès,48.886931692298,2.386338765124,Cite De La Musique Mediatheque,Library
540,,48.876481840204,2.291707386642,Centre Laser Etoile,Medical Center
541,104 boulevard Richard Lenoir,48.863470919246,2.3713699949243,Vélib' [11-44],Bike Rental / Bike Share
542,Rue Sainte-Anne,48.868370593998,2.336483001709,Rue Sainte Anne,Road
543,,48.868272999999995,2.269005,Chez Marie,Library
544,66 Avenue Theophile Gautier,48.847151752853,2.2688698768616,"Arrêt Église d'Auteuil [22,52,62]",Bus Station
545,Rue de la Glacière,48.833682004967,2.34437836156,Rue de la Glacière,Road
546,,48.851083114692,2.2782317219879,Bus 72 - Radio France Pont De Grenelle,Bus Station
547,21 rue Truffaut,48.886476434455005,2.3205506801605003,Commissariat Central du 17ème Arr.,Police Station
548,Avenue Bugeaud,48.870558319497,2.281379699707,Avenue Bugeaud,Road
549,,48.896031672323,2.3807973667942997,Tribunal Des Affaires De Sécurité Sociale De Paris,Building
550,,48.858878999999995,2.269982,Dr Hervé,Dentist's Office
551,,48.873184,2.316932,Datar,Government Building
552,,48.841307149945,2.3666305192195,Cabinet Medical SNCF,Doctor's Office
553,,48.86052512776,2.3755398285232,Cabinet De Radiologie,Medical Center
554,,48.840875468430994,2.405957622191,rue du sahel,Road
555,Rue Octave Feuillet,48.861927,2.271256,Rue Octave Feuillet,Road
556,Rue Labat,48.889425245262004,2.3494112491607995,Rue Labat,Road
557,147 rue de Lourmel,48.840048561653994,2.2838473320007004,Clinique Vétérinaire Dr. Indjidjian,Veterinarian
558,,48.818841,2.445322,Route Saint-Hubert Bois de Vincennes,Road
559,127 Avenue du Général Leclerc,48.823871999999994,2.32577,"Arrêt Porte d'Orléans [28,38,68,N14,N21,N122]",Bus Station
560,41 Avenue Ernest Reyer,48.82235,2.3240540000000003,Arrêt Porte d'Orléans - Ernest Reyer [126],Bus Station
561,63 boulevard de Rochechouart,48.881801656914995,2.3400003963927,Le Bouglione,Capitol Building
562,Place Denfert-Rochereau,48.833664715301,2.3323845863342,"Arrêt Denfert Rochereau [38,68,88,216,OrlyBus,N14,N21]",Bus Station
563,rue montcalm,48.89210636282001,2.3360389623292996,Rue Montcalm,Road
564,28 av George V,48.8679836,2.30140305,Open World Forum Paris,Convention Center
565,Port de la râpée,48.841228026277,2.3724610984664,Le VIP Paris,Boat or Ferry
566,,48.852558978366005,2.2921743922896,Square Desaix,Meeting Room
567,,48.866245,2.2437259999999997,Rue des jockeys,Road
568,Rue Le Dantec,48.829624958647,2.3472332954407,Rue Le Dantec,Road
569,Chaussée de la Muette,48.85788338729,2.2741161683697997,Taxi Muette,Taxi
570,Porte de Champerret,48.885806344715995,2.2929871370699,Arrêt Porte de Champerret [PC 3],Bus Station
571,Rue des Batignolles,48.884318268288006,2.3217581536094998,Rue des Batignolles,Road
572,,48.843353,2.443445,Cabinet Dentaire du Dr Sanders,Dentist's Office
573,Rue Nélaton,48.853343275518,2.2881817817687997,Rue Nélaton,Road
574,Route des barrières,48.818579201107,2.4438883604951,Route Des Barrières,Road
575,Hôtel de Ville,48.856857284213,2.352517578507,Conseil de Paris,City Hall
576,,48.884916839652995,2.3216275932348,Dentiste Tobelem,Dentist's Office
577,16 rue Spontini,48.870826485719,2.2786331176758,Ambassade du Sri Lanka / இலங்கை தூதரகம்,Embassy / Consulate
578,"80, rue Spontini",48.865955680144,2.2757872445706,Clinique Ophtalmologique Lamartine,Hospital
579,Rue de la colonie,48.823554703466996,2.3518691036812998,Chez Dr Abib,Doctor's Office
580,47 Avenue Paul Doumer,48.860518886095,2.2815157828087997,"Arrêt La Tour [22,32]",Bus Station
581,126 Rue de l'Université,48.86063032776,2.3183375029737,Hôtel de Lassay,Government Building
582,96. rue des Poissoniers,48.89275699775,2.3524162580075,Shurgard,Parking
583,227 rue de Bercy,48.846250316302005,2.3689145492659,Mairie de Paris - Direction des Systèmes et Technologies de l'Information,Office
584,Rue Guy Moquet,48.892639,2.325621,Docteur Mifsud,Doctor's Office
585,Villa Ornano,48.894345841447,2.3495575525949,Villa Ornano,Road
586,Rue Damrémont,48.891693,2.334886,Arrêt Damrémont-Marcadet [95],Bus Station
587,Avenue Paul Doumer,48.861288954338,2.2830668434861003,Avenue Paul Doumer,Road
588,"15, Avenue Charles Floquet",48.855990500219,2.2940826416016002,Ambassade de la République Tchèque | Embassy of the Czech Republic,Embassy / Consulate
589,6 rue paganini,48.851045674172,2.4121159481458996,Centre des Finances Publiques,Government Building
590,Place Louis Lépine,48.854952804816996,2.3470830917358,Métro Cité [4],Subway
591,Rue du Ranelagh,48.853748872768,2.2771255284286003,Rue du Ranelagh,Road
592,Rue des Vinaigriers,48.873166149084994,2.363028554205,Rue des Vinaigriers,Road
593,Porte d'Auteuil,48.847602068689,2.2579794421067003,"Arrêt Porte d'Auteuil [32, 52, 123, 241, PC1]",Bus Station
594,,48.860785,2.2754119999999998,Bus 52 Nicolo / Jean-Richepin,Bus Station
595,,48.841588,2.376947,Pôle Emploi Bercy,Government Building
596,,48.84806836353,2.3513659482910003,Rue Des Ecoles,Road
597,8 rue Jarente,48.8553859161,2.3618234655774,Dr Subra - Dentiste,Dentist's Office
598,19 rue du Ranelagh,48.853592691515,2.2728655767343,Mafec 19 Rue du Ranelagh,Meeting Room
599,"Place Gambetta, Paris",48.864859,2.398331,Dentiste Ouakil-Lugassy,Dentist's Office
600,Avenue Kléber,48.8683141353,2.2910785675048997,Avenue Kléber,Road
601,,48.877270357107,2.4080165336116,Arrêt De Bus,Bus Station
602,,48.856755392871,2.2739426395099,Rue Gustave Zédé,Road
603,,48.832201981351005,2.3183920427374,Boyer Barret,Road
604,8 rue Goscinny,48.830785387474,2.3796514878801,Pôle Santé,Doctor's Office
605,38 boulevard Suchet,48.857618972579004,2.2648585476241,Embassy of Belarus,Embassy / Consulate
606,11 Cour des Petites Écuries,48.872718,2.352177,Assedic du Spectacle,Government Building
607,Rue Grégoire de Tours,48.852873434603005,2.3378211266976003,Rue Grégoire de Tours,Road
608,,48.855667394736,2.3786481883602004,Commissariat Paris 11,Police Station
609,Rue de Saintonge,48.862555013434,2.3634123802185,Rue de Saintonge,Road
610,Rue des Moulins,48.866782668808,2.3350614309310997,Rue des Moulins,Road
611,,48.84468,2.2515509999999996,Rue de la tourelle,Road
612,83 Avenue du Général Leclerc,48.827752718464005,2.3266207437121,"Arrêt Alésia-Général Leclerc [28,38,62,68,N14,N21]",Bus Station
613,Rue Cardinet,48.88527005264,2.3111629486083998,Rue Cardinet,Road
614,133 rue Menilmontant,48.869979640121,2.3944616317749,"Pyrénées - Menilmontant [26, 96]",Bus Station
615,,48.84256326340999,2.3965030389789996,Rue De La Gare De Reuilly,Road
616,,48.836353,2.444973,Pavillon des Chênes,Meeting Room
617,,48.890073685816,2.3232634376239,Rue du Dr Heulin,Road
618,,48.861918,2.275277,Rue De Siam,Road
619,,48.86392289106399,2.277848556277,Arrêt Pompe - Mairie du XVIe [63],Bus Station
620,Pont Mirabeau,48.847631852686995,2.27290391922,"Arrêt Pont Mirabeau [22,62]",Bus Station
621,Avenue de Wagram,48.877951712611,2.2995383604667996,Avenue de Wagram,Road
622,79 rue de Grenelle,48.855729113374004,2.3229213178025003,Résidence de l'ambassadeur de Russie,Government Building
623,50 Boulevard de l'Hôpital,48.83883973524,2.3611573280771,"Arrêt Saint-Marcel - La Pitié [57,91,N01,N02,N31]",Bus Station
624,17 Avenue Auguste Blanqui,48.830590785367,2.3516026150952998,APF,Convention Center
625,27 rue Daviel,48.828271185041,2.3444172542815,Pôle Emploi,Government Building
626,Rue lasson,48.891773846567,2.3956646650372,Les Bluets,Hospital
627,205 rue du faubourg Saint Martin,48.880036,2.363871,Dr Flutsch,Doctor's Office
628,,48.879171370507,2.3292281450747003,The Ministry of Lost Souls,Government Building
629,,48.866309514072,2.2714266934157004,Bus PC1 - Dufrenoy,Bus Line
630,139 Rue de Bercy,48.840542852103006,2.3782396316528,"Ministère du Budget, des Comptes Publics et de la Réforme de l'État",Government Building
631,4 Avenue Hoche,48.87764232488,2.3038080225932998,academie diplomatique internationale,Convention Center
632,,48.882853600034,2.3280975707565,Agessa,Government Building
633,13 Place Vendôme,48.867580886353,2.3291774917697,Ministère de la Justice,Government Building
634,rue marx dormoy,48.886442039497005,2.3595928499786,Rue Marx Dormoy,Road
635,Boulevard Diderot,48.84573966784001,2.3725318908691,"Arrêt Gare de Lyon - Diderot [20,29,57,61,65,87,91,Bb,N01,N02,N11,N16,N32,N33,N34,N35]",Bus Station
636,35 rue Saint Dominique,48.859803021836,2.3187728991612,Ministère de la Ville Hotel de Broglie,Government Building
637,6 Square Jouvenet,48.8423,2.266134,Clinique Jouvenet,Hospital
638,Boulevard de Grenelle,48.84881428385899,2.298649816392,Arrêt La Motte-Piquet - Grenelle [80],Bus Station
639,Rue d'Auteuil,48.847799321955996,2.2651627869994,Rue d'Auteuil,Road
640,117 Boulevard Masséna,48.819750196476,2.3639917373657005,Station Porte de Choisy [T3a],Light Rail
641,Villa guibert,48.861934000000005,2.277658,Villa Guibert,Road
642,Boulevard Sérurier,48.879886836448,2.3990321159362997,Métro Pré-Saint-Gervais [7bis],Subway
643,Place de Rhin et Danube,48.882010559746,2.393029332161,Métro Danube [7bis],Subway
644,Avenue de Flandre,48.88983439665999,2.3758792877197004,Avenue de Flandre,Road
645,192 rue championnet,48.893985,2.3325099999999996,DASES/SDIS,Government Building
646,Rue de Tolbiac,48.827675588934,2.3712980747223,"Arrêt Patay-Tolbiac [27,62,64,132,N31,]",Bus Station
647,,48.819316549313,2.3633446779654,Arrêt Porte De Choisy [183],Bus Station
648,252 rue de Charenton,48.837796999999995,2.391957,Laboratoire LCD,Medical Center
649,1-3 Boul. Lannes,48.870700025081995,2.2748287016287003,Arrêt Porte Dauphine [PC1],Bus Station
650,66 avenue Gambetta,48.868795,2.401866,Kinésithérapeute,Medical Center
651,3 rue richard lenoir,48.85429,2.382489,visachrono,Embassy / Consulate
652,Rue de Sèvres,48.849114484881,2.3219561576843,Rue de Sèvres,Road
653,Octave Feuillet,48.863067,2.269279,Bus 63,Bus Line
654,Rue Falguière,48.840816912983996,2.3132456364327996,Rue Falguière,Road
655,Boulevard Saint-Michel,48.849368645992,2.3421263694762997,Boulevard Saint-Michel,Road
656,1 rue de Solférino,48.860823441764005,2.3242211979516,Grande Chancellerie de l'Ordre de la Legion d'Honneur,Government Building
657,1 Parvis de Notre Dame,48.854085640228995,2.3473814091326,Urgences Médico Judiciaires - Hôpital Hôtel-Dieu,Emergency Room
658,122/126 rue du Château des Rentiers,48.828749164245004,2.3664379119873,BEFTI - Police Judiciaire,Police Station
659,,48.856493940249,2.2686035467953998,Boulevard Beausejour,Road
660,,48.888902204183,2.3460968476846,Rue Custine,Road
661,44 rue d'amsterdam,48.87844441,2.327114129439,Centre Médical Europe,Doctor's Office
662,Rue des Dardanelles,48.882506578128,2.2852392973613997,Rue des dardanelles,Road
663,80 rue de Clichy,48.882884000000004,2.327748,Medecine du Travail,Medical Center
664,Rue du Ranelagh,48.853329156611004,2.2799634933472,RER Avenue du Président Kennedy — Maison de Radio France [C],Train Station
665,34 Rue Tolbiac,48.828827000000004,2.37383,Cabinet Kinesithérapie,Doctor's Office
666,8 & 1 Rue Petit -,48.884656268266,2.3799347877502,Vélib' [19-13],Bike Rental / Bike Share
667,"193-197, rue de Bercy",48.844013000000004,2.3725970000000003,Sipperec,Government Building
668,rue saint-ferdinand,48.877831669145,2.29004797184,Rue Saint-Ferdinand,Road
669,Avenue des Minimes,48.841597657129,2.4282331580699,Avenue des Minimes,General Travel
670,Rue de Belleville,48.875258077234,2.394654750824,Rue de Belleville,Road
671,rue du Père Corentin,48.826563388328,2.3310354092582,Rue du Pere Corentin,Road
672,116 boulevard Richard Lenoir,48.86150059622,2.3690581296958997,Boulevard Richard Lenoir,Road
673,7 rue cabanis,48.830599124951,2.3375745827044,Consultations Psy Sainte Anne,Hospital
674,,48.859816908335,2.2709776004451,Chancellerie de l'ambassade de l'Inde à Paris,Embassy / Consulate
675,229-237 Rue Lecourbe,48.839540861308,2.2912200801707003,Arrêt Convention-Lecourbe [62],Bus Line
676,56 Rue Bobillot,48.825674292391994,2.3508294376001,"Arrêt Bobillot - Tolbiac [57,62,67]",Bus Station
677,,48.838963321673,2.2538588628608,Europcar - Agence porte de Saint Cloud,Rental Car Location
678,206 quai de Valmy,48.881401713275004,2.370010994876,Maison des Associations du Xème,Convention Center
679,,48.828723323972994,2.3036867719091,Rue Jacque Baudry,Road
680,Avenue de Choisy,48.822038941184,2.363133430481,Avenue de Choisy,Road
681,37 Boulevard de Port Royal,48.837651,2.3454900000000003,"Arrêt Port Royal - Berthollet [21,83,91,N01,N02]",Bus Station
682,Avenue Pierre de Coubertin,48.819354600378,2.3445296287537003,"Arrêt Stade Charléty - Porte de Gentilly [21,67,216]",Bus Station
683,2 rue André Pascal,48.861314971913,2.2704368122012997,OECD - Chateau De La Muette,Government Building
684,117 avenue des Champs-Elysées,48.872292804231996,2.2989200909060004,Chinese Visa Application Service Center,Embassy / Consulate
685,Rue nollet,48.887610752617,2.3230616880779,Docteur Blavignac,Doctor's Office
686,,48.871921963387,2.3579173167359997,Préfecture de Police 10ème,Police Station
687,Rue Oberkampf,48.864495792001,2.3718906149886,Rue Oberkampf,Road
688,Rue de Picpus,48.841827984442,2.3983025550842,Rue de Picpus,Road
689,8 rue de l'arcade,48.871281874313,2.3236516159477003,CMIE Médecine Du Travail,Medical Center
690,,48.878798675632,2.2923946120283,Osteo Torti,Doctor's Office
691,26 rue Notre-Dame des Victoires,48.867826,2.341668,CMB - Visite Medicale,Medical Center
692,Rue de la Croix Nivert,48.840556974616,2.2908210754394998,Rue de la Croix Nivert,Road
693,,48.833587761499004,2.3070375899998,rue labrouste,Road
694,Place de Bitche,48.888621041379004,2.3789691925048997,Caserne des Pompiers (La Villette),Fire Station
695,,48.861218045136994,2.2706154039802002,Ocde Rue Andre Pascal Paris,Government Building
696,Rue Hébert,48.893489895339,2.3637625489497998,"Place Hebert [60,35]",Bus Station
697,114 rue Nollet,48.88924183148,2.3176270723342998,Centre d'Imagerie Médicale Nollet,Medical Center
698,4 Rue De Madagascar,48.834608,2.3970689999999997,Vélib' [12-35],Bike Rental / Bike Share
699,,48.889276700429,2.3864091655041,La Résidence Des Musiciens,Hospital
700,Avenue Daumesnil,48.837288590998,2.4261474858916,Piste cyclable de l'avenue Daumesnil,Road
701,Boulevard Poniatowski,48.834493687521,2.4048642643801,Boulevard Poniatowski,Road
702,4-10 Ave. Ingres,48.857495740507005,2.2648276665485,"Arrêt Porte De Passy [PC1,32]",Bus Station
703,,48.855403744277,2.3815264666394,Rue Richard Lenoir,Road
704,Rue de Tolbiac,48.830220121125,2.375892178831,"Arrêt Bibliothèque François Mitterrand [62, 64, 132]",Bus Station
705,Place Felix Eboué,48.838603801613,2.3970423132445,"Arrêt Daumesnil - Félix Éboué [29,46,64,N33]",Bus Station
706,123 bd de Reuilly,48.840508493668004,2.3953080935091,Groupe Medical Reuilly,Doctor's Office
707,Rue Saint-Didier,48.86698733755,2.283890247345,Rue Saint-Didier,Road
708,,48.852524819613,2.3982010926235,Rue Planchat,Road
709,Rue de Grenelle,48.857557591278,2.3056268692017,Rue de Grenelle,Road
710,Avenue Matignon,48.870544205445,2.3132121562958,Avenue Matignon,Road
711,,48.892614254153,2.3010022575757003,ISC Waving,Capitol Building
712,Rue de Tolbiac,48.826890422148,2.3662518719442,"Arrêt Olympiades [62, 64, 83]",Bus Station
713,,48.858577000000004,2.307617,Passage Jean Nicot,Road
714,19-21 Avenue Bosquet,48.860162131997,2.303407422269,Organisation Internationale de la Francophonie,Government Building
715,,48.860586410726,2.2780375401077997,Rue cortambert,Road
716,Avenue de la Porte d'Italie,48.818901061045,2.3601084998087,"Arrêt Porte d'Italie-Métro [131,184,185,186]",Bus Station
717,44 av. du Général Michel Bizot,48.834819044032,2.3993624588826,Arrêt Porte de Reuilly [87],Bus Station
718,167 avenue Ledru-Rollin,48.85490797209601,2.380423564051,Laboratoire D'analyses Médicales,Doctor's Office
719,Rue d'Argentine,48.87467866121101,2.2901246979434,Consulat d'Algerie,Embassy / Consulate
720,85 Avenue Parmentier,48.864736846964995,2.3734449522773,Caserne CS Parmentier,Fire Station
721,Rue Montorgueil,48.865490697457,2.3468772503672,Rue Montorgueil,Road
722,55 rue saint didier,48.851029,2.234552,Eylau,Medical Center
723,9 rue Terre-neuve,48.854110257561,2.4007687628837995,Laterit production,Library
724,2 rue michel ange,48.847772,2.26363,Dentiste Dr Slama,Dentist's Office
725,Place Lachambaudie,48.836223072788,2.3866547160714,Caserne De Pompiers Lachambaudie,Fire Station
726,237 Rue de Crimée,48.893355224507,2.3735941818062,"Arrêt Crimée–Curial [54, 60]",Bus Station
727,Place Gambetta,48.865323138320996,2.3989639735925,"Arrêt Gambetta [60,64,69,102,N13,N34]",Bus Station
728,Avenue de la République,48.864904808412,2.376995824667,Avenue de la République,Road
729,146 avenue malakoff,48.875727000000005,2.283823,Hotel Des Impots Du 16eme,Government Building
730,,48.860900033694,2.2707174679845,OECD - Marshall Building,Government Building
731,7 boulevard Soult,48.836312920299996,2.4031760793721,"Arrêt Porte Dorée [46,N33]",Bus Station
732,86 Rue de Gergovie,48.831634567949,2.3177596417221,Foyer le Pont,Meeting Room
733,108 rue des Pyrénées,48.855697140390994,2.4044976346446,"Arrêt Orteaux [26,64]",Bus Station
734,"39, rue Erlanger",48.844867448698,2.2610806102713,Ambassade du Bangladesh,Government Building
735,,48.84551,2.257277,Dentiste Mme Thomas,Dentist's Office
736,Avenue de Saxe,48.848514,2.30979,Avenue de Saxe,Road
737,Rue de la durance,48.838075,2.393783,CPAM Daumesnil,Government Building
738,,48.869124939778004,2.3990803884547,Rue De La Chine,Road
739,,48.837455352938,2.3923836656992004,Agence Juive,Government Building
740,125 ave de Montreuil,48.851288668823,2.3973608781682003,Résidence Les Ambassadeurs,Hospital
741,4 rue de la Montagne Sainte-Geneviève,48.849601253992994,2.3483839758672995,Commissariat du Vème,Police Station
742,2 avenue de St Mande,48.845309941119005,2.396552532517,Office National Des Forets (ONF),Government Building
743,,48.827858,2.419367,Caserne des Gardes (325),Bus Station
744,45 Avenue Du General Michel Bizot,48.834458000000005,2.400511,Vélib' [12-39],Bike Rental / Bike Share
745,Rue de Pelleport,48.873627189661,2.3981652156543,Château d'eau de Belleville,Monument / Landmark
746,163 Rue des Poissonniers,48.898348,2.3524849999999997,"Arrêt Porte des Poissonniers [PC3,302,341]",Bus Station
747,143 rue de bercy,48.841467217417005,2.3768749137755,Csmf,Government Building
748,Avenue René Coty,48.828622031527004,2.3345518112183,Avenue René Coty,Road
749,Quai de Jemmapes,48.875013,2.363718,Quai de Jemmapes,Road
750,BNF Mitterand,48.834595,2.372958,BnF - Salle U,Library
751,Assemblée nationale,48.860505592951,2.3183909348852003,Salle Colbert,Government Building
752,,48.835710999999996,2.459202,Barque sur le lac des Minimes,Boat or Ferry
753,1 Place Henri Rollet,48.835868081644,2.2930312156677,Vélib' [15-51],Bike Rental / Bike Share
754,Rue des Ursins,48.854289233217,2.3511493206024,Rue des Ursins,Road
755,32-36 Rue du Château,48.843419219278005,2.2560175051944,Ambassade De Mongolie,Embassy / Consulate
756,2 rue Pelleport,48.86262,2.4057324003904,Cabinet Medical,Doctor's Office
757,,48.894911117759,2.3878118185601003,Bibliothèque de la Cité des Sciences,Library
758,22 allée darius milhaud,48.883616344269,2.3871660579999,Pole emploi darius milhaud,Government Building
759,,48.839624,2.371348,Voies Navigables De france,Government Building
760,Avenue Jean Jaurès,48.887162935565996,2.3842332853942,Avenue Jean Jaurès,Road
761,11 rue du Fbg Poissonnière,48.871645089504995,2.3477268218994,Comite Regional du Tourisme d'Ile-de-France,General Travel
762,6 rue de parme,48.87511,2.389392,Docteur Pieri,Doctor's Office
763,Rue Du Surmelin,48.86947590701,2.4050280406213997,Rue Du Surmelin,Road
764,Avenue de Friedland,48.874555905541,2.302495275165,Avenue de Friedland,Road
765,2 Rue de la Convention,48.845806326288006,2.2777100362704,Arrêt Javel [62],Bus Station
766,115 Rue de la Convention,48.836497569803,2.293496124039,Arrêt Félix Faure [62],Bus Station
767,48 rue de Crimée,48.879851,2.389378,Centre de Santé Médical et Dentaire A.D.M.S,Medical Center
768,,48.858009298051,2.3726384430315,La Pépinière,Meeting Room
769,Avenue Rapp,48.859604618311,2.3007774353027,Avenue Rapp,Road
770,,48.885346868354,2.3926055109319,Rue Manin,Road
771,,48.836869963402,2.4442479315337002,Petit Train Du Parc Floral De Paris,Bus Line
772,,48.838450938823996,2.3756134968261002,Quai de Bercy,Road
773,Porte de Charenton,48.831729627757,2.3977661132812003,"Arrêt Porte de Charenton [111,N35]",Bus Station
774,Place Armand Carrel,48.882497337996995,2.3820367547242003,"Bus Armand Carrel—Mairie du XIXe [48,60,75]",Bus Station
775,,48.84032833017,2.4001251207149,Laboratoire d'analyses médicales Badré,Medical Center
776,Blvd suchet,48.862032426683996,2.2679503853269,Bus Porte de la muette [63],Bus Station
777,,48.847087,2.3003720000000003,Dr Pestre,Doctor's Office
778,,48.823612,2.324607,Assurance Maladie,Government Building
779,,48.857691579688996,2.366504506827,Gendarmerie,Police Station
780,53 Rue de la Faisanderie,48.86904352670901,2.2762483190155,Ambassade de la République d'Irak,Embassy / Consulate
781,38 rue Bichat,48.871840459148,2.3678089600361,Hôpital Saint-Louis - EFS,Medical Center
782,,48.827533808275994,2.4650000721787,Avenue de la belle gabrielle,Road
783,Rue du Faubourg Saint-Martin,48.88141790185001,2.3655688762665,Rue du Faubourg Saint-Martin,Road
784,7 bis rue georges agutte,48.894874597837,2.3324506877524,Pole Emploi Guy Moquet,Government Building
785,62 rue du surmelin,48.869504209294995,2.4066124351557003,Centre D'action Social Du 20e,Government Building
786,2 Rue Charles Lamoureux,48.868747,2.278755,Ambassade De La Libye,Embassy / Consulate
787,,48.858234461874,2.4064077696895,Commissariat St Blaise,Police Station
788,145 rue Raymond Losserand,48.83209647191,2.3148915338942,Cabinet Dentaire Dr Taieb,Dentist's Office
789,23 rue greneta,48.865138292313006,2.3504680395126,Maison Des Associations 2 Ème,Convention Center
790,1 Place Gambetta,48.864735935345,2.3987531661987003,Docteur Briche - ORL,Doctor's Office
791,142 Rue du Bac,48.850542593953,2.3240431760997997,Conseil Régional Île de France - Unité Communication,Government Building
792,1 Avenue Carnot,48.874298402818006,2.2943615913391,Les Cars Air France,Bus Line
793,15 rue de la marseillaise,48.8886400791,2.3975576320562997,Préfourière de Pantin,Parking
794,14 avenue d'eylau,48.864363083884,2.2849897240581,Espace Multiburo Trocadero,Meeting Room
795,4 Rue Fragonard,48.894250457672,2.3141857611187997,Vélib' [17-11],Bike Rental / Bike Share
796,12 rue Georges Sand,48.849035988599994,2.2695969234792,Hôtel des Impôts,Government Building
797,Passage Saint-Sébastien,48.861656061821,2.3691381176875,Passage Saint-Sébastien,Road
798,,48.866053872467006,2.2744748604699,Idocar,Parking
799,12 Boulevard Picpus,48.839734690968,2.4011970612295,Vélib' [12-38],Bike Rental / Bike Share
800,,48.885851496368,2.3608311354247,Rue Philippe De Girard,Road
801,,48.832391163071,2.29569383222,Rue De La Saida,Road
802,Rue Ordener,48.891533686089,2.3481658363029,Rue Ordener,Road
803,Boulevard du Général Jean Simon,48.825764,2.3819939999999997,Station Avenue de France [T3a],Light Rail
804,,48.839297841374,2.3389277832118,Bibliothèque Rainer Maria Rilke,Library
805,5 rue Vaucanson,48.866867836726996,2.3564811284072005,Cnam,Government Building
806,,48.82214399345101,2.3521299992299998,Préfourriere,Police Station
807,Allee du bord de l'eau,48.875916915894,2.245193730391,Pandore Nico,Boat or Ferry
808,rue du Chevaleret,48.831759572406,2.3726921592848997,Rue Du Chevaleret,Road
809,7/9 Rue de Sévigné,48.85557898512,2.361874668405,Caserne des Pompiers (Sévigné),Fire Station
810,28 rue du moulin vert,48.829835235478,2.3236691023928,Tresor Public,Government Building
811,,48.882869378943006,2.3561621536472996,Cabinet Médical SNCF,Medical Center
812,26 rue de Ménilmontant,48.867779999999996,2.38502,Dr Jouannais - Médecin Général,Doctor's Office
813,,48.828861489046,2.3677658977547003,Commissariat du 14ème,Police Station
814,,48.859556065883,2.2820644554908,Cabinet Du Dr Vasram,Doctor's Office
815,Quai de la Gare,48.837194082317,2.3746452246292002,La Baleine Blanche de Bercy,Boat or Ferry
816,296 rue des Pyrénées,48.872280536414,2.3917852007121,Bus 26 (Arrêt L'Ermitage),Bus Station
817,48,48.843807,2.281713,La Chataigneraie - Centre De Rééducation,Hospital
818,28 Rue Francois Truffaut,48.833288570038,2.3862587934354,Vélib' [12-33],Bike Rental / Bike Share
819,,48.834981797499,2.2821754477609,Ministère de la Défense,Government Building
820,184 rue de Belleville,48.875605193197,2.3935244346949,ADA Paris Nord Belleville,Rental Car Location
821,"17, place de l'Argonne",48.893016525647,2.3852333209823,Centre De Finances Publiques,Government Building
822,"237, av. Daumesnil",48.837675899598,2.4016284942627,Centre Médical Daumesnil,Doctor's Office
823,,48.892590000000006,2.344925,Cabinet medical - Rue Hermel,Doctor's Office
824,"2, Boulevard de Magenta",48.868715,2.362784,Laboratoire de biologie médicale,Medical Center
825,Avenue des Terroirs de France,48.831820821127,2.3881914113589997,"Arrêt Terroirs de France [24, 109, 111]",Bus Line
826,6 Rue du Débarcadère,48.880275995732,2.2861171607341,Vélib' [?],Bike Rental / Bike Share
827,Rue Olivier de Serres,48.834215565972,2.2954344749451,Rue Olivier de Serres,Road
828,,48.823889,2.42285,Suippes,Rest Area
829,102 avenue Parmentier,48.866179459528,2.3736454143212002,Laboratoire d'Analyses Médicales de Vinci,Medical Center
830,9 rue de Quatrefages,48.843601711765004,2.3541048367577,Centre De Consultations,Medical Center
831,,48.868318009684,2.4005779172765,Rue Orfila 75019,Road
832,101 Cours de Vincennes,48.847208235425995,2.4086236953735,"Station Porte de Vincennes [T3a,T3b]",Light Rail
833,48 Rue Pouchet,48.893225697906,2.3225650799013,Arrêt La Jonquière [66],Bus Station
834,12 Rue Francois Millet,48.851006542206,2.2724854946136,Vélib' [16-28],Bike Rental / Bike Share
835,6 rue Alexandre cabanel,48.848774276368,2.3021558638918997,EFS - Don du sang,Medical Center
836,4 Rue Des Belles Feuilles,48.865687038119,2.2831220904179,Vélib' [16-10] V+,Bike Rental / Bike Share
837,139 rue de Bercy,48.839985,2.375658,Centre de Conférence Pierre Mendès-France,Convention Center
838,,48.873418420576,2.3029005289913,Rue Washington,Road
839,Boulevard Poissonnière,48.870671231766,2.3478984832764,Grands Boulevards,Road
840,12 Quai de la Rapée,48.840611847867,2.3730662836362,Péniche Les flots,Boat or Ferry
841,,48.86636273453399,2.3738390115836,Clinique Leonard De Vinci,Doctor's Office
842,Rue de l'évangile,48.892550518627004,2.3625124136972997,Rue de l'Evangile,Road
843,57 bd poniatowski,48.83229620000001,2.4035987999999997,Medecin Generaliste - Dr Goutagny,Doctor's Office
844,78 Boulevard de Strasbourg,48.875974,2.357973,"Arrêt Gare de l'Est [30,31,32, 35,38,39,46,47,56,65,350,N01,N02,N13,N41,N43,N44,N45]",Bus Station
845,,48.883160091072,2.3091598965374,Laboratoire d'analyses Medicales,Medical Center
846,Boulevard Flandrin,48.867198473771,2.2731843079971,Boulevard Flandrin,Road
847,31,48.846785053045,2.2664775934666004,Laboratoire FL BIO,Medical Center
848,231 bd Saint Germain,48.859586566317994,2.3220577600314,Ministère Des Armées,Government Building
849,3 rue de l'Arsenal,48.84964762802301,2.3652691010284,Direction Des Affaires Scolaires,City Hall
850,15 Rue Erlanger,48.847353344678,2.2611472544295,Garage,Parking
851,28 rue Custine,48.888853473372,2.3468953041477,Dr Guerrero,Doctor's Office
852,31 rue pixerecourt,48.867328808292996,2.3765820830065,Mdee 20,Government Building
853,13 rue Beaurepaire,48.8711981,2.3642112,Scanner République,Medical Center
854,1 rue Ernest Hemingway,48.838250377391006,2.2711601506237997,Pré-fourrière Balard,Parking
855,10-24 avenue de Ségur,48.850509193395006,2.3080638822539,"Etalab, Data.gouv.fr",Government Building
856,Avenue Ingres,48.859481292324,2.2682935160744,Arrêt Ranelagh [32],Bus Line
857,4 place de la porte de passy,48.857495740507005,2.2646284475485,OCDE Coreé,Government Building
858,21 rue Daviel,48.827929704647,2.3447783621787996,Centre d'assurance maladie de la Butte aux Cailles,Government Building
859,Rue Frédérick Lemaître,48.87400212029,2.3920503503157002,Rue Frédérick Lemaître,Road
860,59 rue d'auteuil,48.8460412,2.26221,Dr Keyan,Doctor's Office
861,,48.876222682802,2.3933596803977,Prefecture De Police Antenne Du 19e,Government Building
862,,48.88221334373,2.3886658024004,Impasse grimaud,Road
863,Rue watt,48.826308040638,2.378443375018,Rue Watt,Road
864,Place des vins de France,48.832561244827005,2.3873873200822997,Service des Achats de l'Etat,Government Building
865,Rue Du Docteur Potain,48.876817508897,2.39790558815,Rue Du Docteur Potain,Road
866,,48.847210488792,2.3842626470917003,Caserne des pompiers 12eme,Medical Center
867,,48.890289950158994,2.3829573462079,Quai De L'oise,Road
868,Rue Desnouettes,48.835818648205006,2.2896945476532005,Rue Desnouettes,Road
869,Rue Haxo,48.875022469175995,2.4030735323536,Rue Haxo,Road
870,,48.881993512258994,2.3173633962937004,Cabinet Ophtalmologie Bigot,Medical Center
871,,48.874671455111,2.3018726564985,Park Alizée,Parking
872,9bis rue de Maubeuge,48.877050361037995,2.3420512676239,Cabinet de Radiologie,Medical Center
873,47 Rue de la Chapelle,48.893977797742004,2.3590708899894,Caisse d'Allocations Familiales,Government Building
874,Rue de la Glacière,48.834978272285994,2.3450446128845,"Arrêt Glacière - Arago [21, 83]",Bus Station
875,Rue Saint-Dominique,48.859562266876004,2.3065280914307,Rue Saint-Dominique,Road
876,Avenue de Saint-Ouen,48.890514107725004,2.3294108972857,Arrêt Davy [81],Bus Station
877,251 Avenue Daumesnil,48.83664084152,2.4022169594856,Vélib' [12-10],Bike Rental / Bike Share
878,Rue de Picpus,48.839526020733004,2.3996436595917,Picpus - Reuilly [bus 29],Bus Line
879,68 Avenue de Versailles,48.847136573542,2.2734496678329,Dr Chirié - Chirurgien Dentiste,Dentist's Office
880,,48.891892999999996,2.336979,Antenne de Police du 18e Arrondissement,Police Station
881,118-134 Rue de la Glacière,48.826569284944,2.3413487702749,"Arrêt Glacière - Tolbiac [21,62,216,Orlybus]",Bus Station
882,,48.859310749635,2.4093668369102,Le Saint Blaise,Parking
883,,48.874624190018,2.2952264191253,Arrêt Charles De Gaulle - Mac Mahon [92],Bus Line
884,Rue de Wagram,48.881622510727,2.3007237911223997,"Arrêt Wagram - Courcelles [31,84]",Bus Station
885,17 Quai de Grenelle,48.863583319369,2.3072179242951,Les Cars Rouges,Bus Line
886,Place de l'Opera,48.869793524996005,2.3327171833196,"Arrêt Opéra - Quatre Septembre [21,27,29,68,81,95]",Bus Station
887,av. de Flandre,48.884783258755,2.3691630363463996,"Quai de la Seine - Stalingrad [54, N42]",Bus Station
888,,48.88803963969401,2.3458553205969,Passage Cottin,Road
889,,48.874573141562,2.3020777406272,Rue Balzac,Road
890,,48.857801239429996,2.2635945531852,C2,Parking
891,49 Rue De La Faisanderie,48.86891455,2.2764717999999995,Représentation Commerciale De Russie En France,Government Building
892,1 Place De La Porte De Passy,48.857366493374,2.2661472113071,Vélib' [16-20],Bike Rental / Bike Share
893,Avenue de Clichy,48.88924183148,2.3225355148315,"Arrêt Legendre [54, 74]",Bus Station
894,,48.863103036354,2.2613194587712,Bateau Passerelle Chalet Des Iles,Boat or Ferry
895,5 rue de la Gare de Reuilly,48.841321070982,2.3935998989374,Arrêt Rue de la Gare de Reuilly [46],Bus Station
896,Boulevard Suchet,48.856908172107,2.2644066810607995,Boulevard Suchet,Road
897,Quai d'Issy,48.834884601211,2.2668660001205,Quai d'Issy,Road
898,4 rue Cambacérès,48.872081,2.318262,Direction Centrale Securite Publique,Office
899,50 Avenue de la Porte d'Ivry,48.821403000000004,2.369581,"Arrêt Porte d'Ivry [27,83]",Bus Station
900,184 rue du Faubourg Saint-Martin,48.87782652701,2.3616206645966002,AVIS Car Rental,Rental Car Location
901,24 Boul. Suchet,48.857326,2.265936,Ambassade De La Cote d'Ivoire,Embassy / Consulate
902,132 boulevard de Clichy,48.883654443105,2.3280501365662003,"Arrêt Place de Clichy-Caulaincourt [30,54,74,80,95,N02]",Bus Station
903,,48.828056993323,2.331976890564,Bus 62 La Tombe Issoire,Bus Line
904,31 Avenue du Général Leclerc,48.83123525034,2.3298525810242,"Arrêt Mouton Duvernet [38,68,N14,N21]",Bus Station
905,,48.874808621392,2.3761518483745,Cosem Atlas,Medical Center
906,Rue Saint-Martin,48.8637266532,2.3527532815932997,Rue Saint-Martin,Road
907,,48.891939390191,2.384932355124,Embarcadère Paris Canal,Boat or Ferry
908,,48.870330708981,2.3943492700061,La Clinique Le Démontoire,Medical Center
909,Rue de la Santé,48.828765418747,2.3428240266782,Arrêt Daviel [21],Bus Station
910,Avenue de Versailles,48.839499237885,2.2622586462941,Vinci Park - Versailles - Paul Reynaud,Parking
911,46 Boulevard Bessière,48.897631299916,2.3235159072855,Commissariat,Police Station
912,27 rue du Faubourg Saint Jacques,48.831264484609,2.3358295454525,Médecine interne - Hôpital Cochin,Hospital
913,,48.832609393762,2.354885066703,Laboratoire EMAR,Medical Center
914,,48.866781829709,2.2767293407977003,Médecine Du Travail,Doctor's Office
915,Villa Marcel Lods,48.875316197391,2.3768850779729,Le Motif,Library
916,6 place de clichy,48.883894010988996,2.3279275054657003,Radiologie Echographie Place De Clichy,Medical Center
917,Avenue de Clichy,48.887867384432,2.3257772310611,"Arrêt La Fourche [54, 74]",Bus Station
918,Avenue du Président Kennedy,48.855719522036,2.2852015308231004,Avenue du Président Kennedy,Road
919,30 Place de la Nation,48.848281392195,2.3978304862976,"Nation - Place des Antilles [26,56,86,351,N11]",Bus Station
920,Place Charles de Gaulle,48.874707677981995,2.2957134246826003,"Arrêt Charles De Gaulle - Etoile - Wagram [30,31]",Bus Station
921,,48.85880091618301,2.4015555776077004,Rue De Bagnolet,Road
922,,48.852641639944004,2.3851726394244,Rue Titon,Road
923,,48.846409,2.2544470000000003,In a Cab,Taxi
924,,48.849876323802995,2.340018456494,Rue Monsieur Le Prince,Road
925,Avenue du Général Leclerc,48.831136374271004,2.3296809196472,Avenue du Général Leclerc,Road
926,Place de Clichy,48.883555670523,2.3276853561401,"Arrêt Place de Clichy [30,54,68,74,81,95,N01,N02,N15,N51]",Bus Station
927,,48.876840548429,2.3244392059904,Pompiers St Lazare,Fire Station
928,5 rue des Irlandais,48.844314082332,2.3463161219482003,Centre Culturel Irlandais,Library
929,BNF Mitterand,48.833508661364,2.3762887644357997,BNF - Salle E,Library
930,Rue de Dunkerque,48.879865669317,2.355397939682,"Arrêt Gare du Nord - Dunkerque [26,43,48,54]",Bus Station
931,12-14 Rue Claude Vellefaux,48.873181675722,2.3702758730899,Vélib' [10-32],Bike Rental / Bike Share
932,Face 279 Boulevard Pereire -,48.877854639514,2.2851594123593997,Vélib' [17-42],Bike Rental / Bike Share
933,Avenue de l'Opéra,48.868610542755,2.3331570625305,Avenue de l'Opéra,Road
934,Rue Saulnier,48.874933483536,2.3443579673767005,Rue Saulnier,Road
935,Avenue de la Bourdonnais,48.857278204256,2.3019673938314,Avenue de la Bourdonnais,Road
936,,48.887485999999996,2.387546,Docteur,Doctor's Office
937,Rue Geoffroy Saint Hilaire,48.841544643318,2.355520303563,Arrêt Buffon - La Mosquée [67-89],Bus Station
938,,48.875189282907,2.2795489839992,Arrêt Marbeau [PC1],Bus Line
939,5 Impasse Chalabre,48.892221410267,2.3154845731752998,Pôle Emploi Cardinet,Government Building
940,,48.863992117249005,2.2731016507909,Pharmacie Henri Martin,Medical Center
941,Rue de la Reine Blanche,48.836216216432,2.3534207965580998,Rue de la Reine Blanche,Road
942,,48.860795445158004,2.2790732115459,Centre Cortambert,Medical Center
943,77 avenue Marceau,48.890679275640004,2.3291287121831,Ambassade du Danemark (Ambassade i Danmark),Embassy / Consulate
944,,48.867512892377995,2.3408150618272,Direction Generale Des Finances Publiques,Government Building
945,51 avenue du Dr Arnold Netter,48.84407335631,2.405469417572,Cabinet du Dr Benedite Allergologue,Doctor's Office
946,Rue de Patay,48.825740270073005,2.3743772506714,"Arrêt Oudiné [27,132,N31]",Bus Station
947,,48.842959892286,2.3526421938005,Toilettes Publiques Place Monge,Emergency Room
948,21 rue Hermel,48.890906639609,2.3442077636719,Dr. Doz,Doctor's Office
949,,48.873937069641,2.3849279004641004,Arrêt Pyrénées - Belleville [26],Bus Station
950,21 Rue Censier,48.840556974616,2.3536813259125,Vélib' [05-34],Bike Rental / Bike Share
951,,48.8480756,2.2633175,Cabinet Infirmier,Medical Center
952,Rue Lemercier,48.886684805718005,2.3236439185277002,Rue Lemercier,Road
953,Rue De La Roquette,48.8598924749,2.3881057040924,Docteur Kaoutar,Doctor's Office
954,,48.872416046439,2.4116123276824,Caserne,Fire Station
955,Rue des Entrepreneurs,48.845298559224005,2.2892359935347004,Rue des Entrepreneurs,Road
956,Avenue de Clichy,48.89286412910499,2.3160123825073,"Arrêt Boulay [54, 74]",Bus Station
957,24 Quai d'Austerlitz,48.839710319381,2.3712509455832995,Service de Navigation Seine,Government Building
958,3 Rue Du Maroc,48.884527256233994,2.3663090956702004,Centre De Santé,Medical Center
959,139 Rue De Bercy,48.839714512858,2.3764750097973,DREE (Comatta),Government Building
960,142 Rue de Tolbiac,48.826213511881,2.3571574687958,"Arrêt Italie - Tolbiac [47,62,N15,N22]",Bus Station
961,150 Avenue d'Italie,48.822303526448,2.3586682024198,"Arrêt Maison-Blanche [47,N15,N22]",Bus Station
962,,48.83667292473601,2.3244725824946,Rue Cels,Road
963,33 rue Guy Môquet,48.893215764564,2.3225776559818,Arrêt Moines - Davy [31],Bus Station
964,114 Bis Rue Des Pyrenees,48.857014056242,2.4045145511627,Vélib' [20-16],Bike Rental / Bike Share
965,1 Boulevard Diderot,48.845326,2.369221,"Arrêt Pont d'Austerlitz - Quai de la Rapée [24,57,61,63,91,N01,N02,N31]",Bus Station
966,94-98 Boulevard Auguste Blanqui,48.831023372811,2.3442935943604,Arrêt Glacière - Auguste Blanqui [21],Bus Station
967,88 Boulevard Auguste Blanqui,48.830613740381004,2.3462677001952996,Vélib' [13-04],Bike Rental / Bike Share
968,126 Boulevard Murat,48.837497332419005,2.2581161524076,"Arrêt Porte de Saint-Cloud - Murat [PC1,22,62,72,N12,N61]",Bus Station
969,94 Rue de Tolbiac,48.82673,2.364424,"Arrêt Tolbiac-Baudricourt [62,64,83]",Bus Station
970,,48.830515937503,2.3271635827903,"Centre De Radiologie, Alesia",Medical Center
971,,48.831836560283,2.3875107733487,Ministère de l'Economie et des Finances - Direction Des Fraudes,Government Building
972,Rue Du General Appert,48.868933995525,2.2763932014428,Ambassade d'Irak - Centre Culturel,Government Building
973,13 Rue Carpeaux,48.890509527966,2.3294729968097,Vélib' [18-18],Bike Rental / Bike Share
974,Avenue de France,48.829924,2.377488,Avenue de France,Road
975,,48.846429,2.2585319999999998,Equatour,General Travel
976,Boulevard de Grenelle,48.851772222782,2.291867304812,Boulevard de Grenelle,Road
977,Place de la bataille de Stalingrad,48.882302519735,2.370218164383,Arrêt Jaurès - Stalingrad [26],Bus Station
978,"2, rue Saint Médard",48.843541040633,2.3513833723824002,Labo de l'édition,Library
979,120 rue Oberkampf,48.866929635221005,2.3860860941415,Docteur Patrick Teboule,Doctor's Office
980,2-36 Rue Michel-Ange,48.848773,2.2637549999999997,Centre Edmond Safra,Library
981,134 Bd Diderot,48.847526,2.3890759999999998,Centre Radiologie,Medical Center
982,,48.853449578467,2.2716578765152002,Avenue Léopold II,Road
983,,48.85895,2.379883,Cabinet D'ophtalmologie,Medical Center
984,,48.888250730535,2.3683343215825,Cardy Garage,Parking
985,Quai d'Ivry,48.826347713968,2.3870158195496,Quai d'Ivry,Road
986,Avenue Bosquet,48.859125074545005,2.3036902017446,Arrêt 92 - 80 Bosquet Saint Dominique,Bus Line
987,Avenue Hector Berlioz,48.887252454159004,2.3312473297119,Tombe de Dalida,Cemetery
988,91 Avenue d'Italie,48.821053883556004,2.3610213481097,Dr Adele Paul,Doctor's Office
989,53 Bis Rue Gabrielle,48.827717,2.419006,Docteur Didier Lehongre,Doctor's Office
990,10,48.8782607,2.3292848999999998,Alfresco Day,Meeting Room
991,,48.834051500525,2.3982845327346,Pré-Fourrière Bercy,Parking
992,"45, rue de Constantinople",48.886526066029994,2.3483785942304,Ophtalmologue,Doctor's Office
993,BNF Mitterand,48.83217225444199,2.3795606142564,BNF mezzanine salle D,Library
994,Rue Beaubourg,48.862600904638995,2.3544645039593997,Rue Beaubourg,Road
995,65 rue des Grands Moulins,48.827131729505,2.3751926422119,Bibliothèque universitaire des langues et civilisations (BULAC),College Library
996,"25, Avenue De flandre",48.885466495813,2.3716039316492004,Cram Île-de-France,Medical Center
997,9 Rue Stanislas,48.845040000000004,2.328169,Cabinet dentaire,Dentist's Office
998,,48.838589248450006,2.3875047328783996,Rue De Charenton,Road
999,,48.827996694986,2.3524281068528996,Tangka Voyages,General Travel
1000,,48.884489125764,2.2927144869851004,CMIE - Médecine du travail,Doctor's Office
1001,18 Rue Daunou,48.869755858233006,2.3309052664149,Pavillon Vendôme,Convention Center
1002,1 Avenue de l'École-de-Joinville,48.819855276165,2.4540247768164,Centre de rétention administratif de Vincennes (CRA),Government Building
1003,Carroussel du Louvre,48.861549630352,2.3337016889894,Salon du Mariage,Bridal Shop
1004,17-19 Avenue Emile Laurent,48.840931219748,2.4107989668846,Arrêt Porte de Montempoivre [29],Bus Station
1005,30 rue Brancion,48.834737679872,2.3051083743325003,"Brancion-Vouillé [62,89,95]",Bus Line
1006,,48.833872699770005,2.3437911984744,Rue Léon-Maurice Nordmann,Road
1007,151 Rue Du Faubourg Saint Antoine,48.850744,2.378973,Ophtalmologue Dr Brock,Doctor's Office
1008,85 Quai d’Austerlitz,48.842774159703,2.365300655365,RER Paris-Austerlitz [C],Train Station
1009,,48.828119234908,2.3446404871186,Cpam Daviel,Medical Center
1010,,48.864348643405,2.2739411383406,Ambassade de la république populaire de bangladesh,Embassy / Consulate
1011,BNF Mitterand,48.830983921406,2.3767875733826,BNF - Salle N,Library
1012,"61 Rue Taitbout, 75009 Paris",48.875754319997995,2.3353807026115,ACP,Government Building
1013,29 rue de Vaugirard,48.848925201821004,2.3356730883532,Le Petit Luxembourg - Hôtel de la présidence du Sénat,Government Building
1014,27 Rue de l'Arcade,48.873199514116,2.3237629025896003,Cabinet de Kinesitherapie Becquet-Meunier,Medical Center
1015,"34 Rue Poliveau, 75005 Paris",48.840178658243,2.3586898186602,PMI Poliveau,Medical Center
1016,5 Rue Gazan,48.824117,2.340061,"Arrêt Parc Montsouris [21,216]",Bus Station
1017,,48.831465980945,2.302543340174,Rue Brancion,Road
1018,Rue des Rosiers,48.857077586616,2.3596036434173997,Rue des Rosiers,Road
1019,155 Boulevard Haussmann,48.874866824692,2.3081619528834,Parking Vinci Haussmann-Berri,Parking
1020,Parc floral - Paris 12,48.837520542805,2.4455201625823997,Salon Bio Marjolaine 5-13 Novembre,Event Space
1021,69 Rue De Varennes,48.855068200387,2.3178035434432998,Ministère des Relations avec le Parlement,Government Building
1022,,48.881536637389004,2.3725451018637997,Avenue Secretan,Road
1023,Boulevard Jourdan,48.870645251804,2.2778125377997003,Institut Mutualiste Montsouris Paris,Hospital
1024,,48.865446595261,2.4141107195395,Eurolines,Bus Station
1025,,48.861824921784,2.2827711490893,Rue Scheffer,Road
1026,52 Rue Henry Farman,48.83320158684,2.2714447911801003,Vélib' [15-42],Bike Rental / Bike Share
1027,114bis Avenue de Versailles,48.842957743877,2.2695565223694,"Arrêt Victorien Sardou [22,72,N12,N61]",Bus Station
1028,,48.855080275725,2.3581670088057,Hotel De Beaumont,Courthouse
1029,,48.854997632015,2.2696683391709,Docteur Cattan,Doctor's Office
1030,60 Avenue de la Motte-Picquet,48.849700538574,2.2987462468801,Health City,Gym
1031,10/18 Rue Des Terres Au Curé,48.824034565471,2.3722055220281,Espace MAS,Convention Center
1032,Cour Des Petites Ecuries,48.872877594462004,2.3519833864068,Pole Emploi Spectacle,Government Building
1033,,48.824418607697,2.3255682537492,CPAM Ave Général Leclerc,Medical Center
1034,,48.881702472164,2.3296917220477997,Titine's Home,Home (private)
1035,,48.856463537667,2.3102188971644,Secrétariat Général De La Défense Et De La Sécurité Nationale,Government Building
1036,"122, rue de Picpus",48.8362528,2.4006211,Cabinet d'ostéopathie Picpus,Doctor's Office
1037,"163, Rue Charenton",48.841768643779,2.3875916629902996,Prefecture de Police- Accueil Des Etrangers,Police Station
1038,,48.841752285785,2.3139763334095997,Clinique Veterinaire Caron,Medical Center
1039,Rue Cardinet,48.888097408469,2.3140568814354,"Arrêt Pont Cardinet [31,53]",Bus Station
1040,5-11 Rue du Docteur Germain See,48.852969852947,2.2807105939249,Arrêt Radio France [72],Bus Station
1041,17 Rue Froment,48.857769,2.372199,CMSEA,Medical Center
1042,,48.889977039887,2.3623084968197,Cabinet Médical Des Dr Rozenblat Zerbib & Mamou,Doctor's Office
1043,,48.854874,2.386086,Dr Dimascio Pédiatre,Doctor's Office
1044,9 bis rue de Maubeuge,48.877163258655,2.3421478271483998,Permanence UMP,Government Building
1045,60 rue Claude Decaen,48.836760909109,2.398032682201,Clinique Vétérinaire Leclerc Chen Rabot,Veterinarian
1046,188 rue de Courcelles,48.885460535914,2.2969150543212997,Autolib' Station,Rental Car Location
1047,,48.829933190138995,2.375170864102,Passage Des Crayons,Parking
1048,37 Boulevard Masséna,48.822363877948,2.375385761261,Caserne de Pompiers Masséna,Fire Station
1049,,48.858615254124004,2.2758614989988,Eliza Les Ailes Du Voyage,General Travel
1050,"35 Rue de Rome, 75008 Paris",48.877002161343,2.3233249964306,Laboratoire de biologie médicale La Scala,Medical Center
1051,Rue Castex,48.853680650292,2.36628297198,Cabinet Kinésithérapie,Doctor's Office
1052,,48.848725315979,2.2676437132492,Dr Sauron,Doctor's Office
1053,Avenue des Ternes,48.877953534841005,2.2980737686157005,"Arrêt Ternes [30,31,43,93,341]",Bus Station
1054,22 rue Quentin Bauchart,48.870725996695995,2.3018890114809,Élysées Biarritz,Convention Center
1055,Rue de Maubeuge,48.87826399707,2.3448944091797004,Rue de Maubeuge,Road
1056,,48.854640751565,2.3859463617866,Arrêt Ligne 76 : Charonne-Voltaire,Bus Line
1057,,48.840642142114,2.2910875269482998,Laboratoire Bio Quinze,Medical Center
1058,,48.829799822748,2.2907667348063,Salon du 2 roues,Convention Center
1059,,48.884146292509996,2.3532934798332996,police,Police Station
1060,130 avenue de Clichy,48.893211403902995,2.3225693573279,"Arrêt Rue des Moines [54,74,N15,N51]",Bus Line
1061,5 place des vins de france,48.832372213876,2.3874829625192002,Conseil National du Numérique,Government Building
1062,Avenue Victor Hugo,48.866585970001005,2.2778200383397,Kuoni - cap sur les maldives,General Travel
1063,,48.836527351807,2.4120041840052004,Aire De La Ferté,Rest Area
1064,4 Avenue Raphael,48.862738360573,2.267972626386,Ambassade De Madagascar,Government Building
1065,"181, avenue Daumesnil",48.84047223948,2.392315864563,La Maison des Associations du 12e,Government Building
1066,"125, Rue De Saussure",48.888415991109,2.3088779960076002,Bibliotheque Du Comité d'Entreprise - Makheia Group,Library
1067,,48.861709115277,2.2702714942157005,OECD,Convention Center
1068,"5, Boulevard Emile Augier",48.858768642611,2.2730179807692004,Consolato Generale d'Italia a Parigi,Government Building
1069,17 Rue Voltaire,48.851616458872,2.3906552055515,Croix-Rouge Française,Medical Center
1070,11 Rue de Cambrai,48.896174670143004,2.3805040952082996,Tribunal d'Instance du 19ème,Courthouse
1071,Rue Francois Miron,48.855808454771996,2.3573117602082,Rue Francois Miron,Road
1072,141 rue de Saussure,48.88935586844,2.306785920266,RSI Ile de France Centre,Government Building
1073,,48.851293146422,2.369012550758,Parking Vinci,Parking
1074,60 Rue Claude Decaeb,48.836933440986,2.3981600963772998,Cabinet Médical Le Pape Monnerie,Doctor's Office
1075,Rue Pelleport,48.873351965655004,2.3979303896524,Rue Pelleport,Road
1076,Rue Marcadet,48.891698079832004,2.3358315430852996,Efficience Centre Marcadet,Medical Center
1077,Rue Darcy,48.871077461118,2.4047258243087004,Reservoirs De Menilmontant,Government Building
1078,93 Avenue De Versailles,48.845527851654,2.2718954086304,Arret Wilhem - Versailles [62],Bus Station
1079,,48.84046354731,2.3076212456971,Rue Mathurin Regnier,Road
1080,,48.872020047180996,2.4044155976792,Reservoir Telegraphe,Government Building
1081,rue Lecourbe,48.836763633297004,2.2831730603355,Hertz,Rental Car Location
1082,Avenue Gambetta,48.872297026462,2.4041036616244997,Maternité Hôpital Thonon,Hospital
1083,Rue Léon Frot,48.856302121246,2.3853590222781,Rue Léon Frot,Road
1084,14 Rue Boileau,48.846516319525,2.2652864456177,Clinique Edouard Rist,Medical Center
1085,11 rue de Cambrai,48.896622768471005,2.3810454032202997,U.R.S.S.A.F,Government Building
1086,89 avenue d'Italie,48.823868449746,2.3579374767770003,Laboratoire d'analyse Akoun,Medical Center
1087,Rue La Fayette,48.881371286912,2.3650126797279,"Arrêt Louis Blanc [26,46,54]",Bus Line
1088,Rue de l'Évangile,48.895569218175,2.3708152770996,"Arrêt Évangile–Aubervilliers [35,54,60]",Bus Station
1089,"133 Avenue Jean Jaurès, 75019 Paris",48.883677346349,2.3847005741371,Laboratoire De Biologie Medical Jaures,Doctor's Office
1090,,48.86331093200499,2.4011051714883997,clinique veto UCVET,Medical Center
1091,"Rue Pajol, 75018 Paris",48.891393249393,2.3610821974598997,"Place De Torcy [35,60]",Bus Line
1092,"1, boulevard Murat",48.84795662349399,2.258859872818,Autolib'Station,Rental Car Location
1093,,48.847790926099,2.4038684485624002,Cabinet Dc Fradet,Doctor's Office
1094,,48.899020992442,2.3322228496715,Etablissement Français Du Sang De L'hopital Bichat,Medical Center
1095,19 Rue Truffaut,48.885098627302,2.3223728066459,Hotel de Police du 17e,Police Station
1096,,48.848424968311996,2.2666665261162997,Clinique Veterinaire du Village d'Auteuil,Veterinarian
1097,,48.859474404398,2.2682935160744,Bus 32 Louis Boilly,Bus Station
1098,112-114 boulevard Mac Donald,48.899793318488996,2.3832970027497002,DOSTL - Parc Nord,Police Station
1099,28 Rue De Picpus,48.845589621729005,2.3949482380687,Laboratoire d'Analyses Médicales,Medical Center
1100,"2 Rue Ordener, 75018 Paris",48.890283080765,2.3597682292863,"Arret Ordener - Marx Dormoy [35,60,65, N43]",Bus Line
1101,,48.845598272231996,2.39760069644,Avenue de Saint Mande,Road
1102,Denfert,48.833191154538,2.3342853052918,Invest In France,Government Building
1103,,48.837470715371,2.4039329270343996,Avenue du general michel bizot,Road
1104,,48.854077453196,2.3737013339996,Passage Thiéré,Road
1105,Cavaignac,48.855492365235996,2.3809403962175,Hospital,Hospital
1106,61/63 Rue De La Granges Aux Belles,48.87711310271,2.369273568573,Centre Medical,Doctor's Office
1107,58 Rue De Varenne,48.854744131664,2.320939718421,Hôtel de Montalivet,Government Building
1108,Rue Belgrand,48.867982855258,2.4015610736958997,61 Arrêt Gambetta-Mairie du 20,Bus Line
1109,,48.892930334625994,2.3635845138827003,Place Hebert,Road
1110,119 Rue Des Pyrénées,48.856695739383,2.4037905367856003,Bureau Passion,Government Building
1111,21 Rue Des Blancs Manteaux,48.858955508953,2.3565296065037997,Maison Des Acteurs Du Paris Durable,Government Building
1112,Rue Saint-Charles,48.844765305965005,2.2839546203612997,Rue Saint-Charles,Road
1113,Bd De L'hôpital,48.833385644985,2.3566489493806,Commissariat De Police,Police Station
1114,,48.894076225395004,2.3225413409963,Rue Baron,Road
1115,Avenue Parmentier,48.86865694390001,2.3719729002155,Avenue Parmentier,Road
1116,57-61 Rue Des Pirogues De Bercy,48.833697099567004,2.3880639991505,Vélib' [12-110],Bike Rental / Bike Share
1117,Rue d'Hauteville,48.873945576713,2.3505806922912997,Rue d'Hauteville,Road
1118,4 Quai De La Loire,48.883895891307,2.3715371854769,Vélib' [19-04],Bike Rental / Bike Share
1119,,48.89128786575,2.3781595859538998,Rue de Joinville,Road
1120,,48.84864651115,2.2638904976391,Cabinet Du Docteur C.,Doctor's Office
1121,Pyramide Entree Parc Floral,48.836982727051,2.44060754776,Vélib' [12-125],Bike Rental / Bike Share
1122,30 Avenue Des Milimes,48.841232299805,2.430891752243,Vélib' [43-06],Bike Rental / Bike Share
1123,"4 Avenue de Tourville, 75007 Paris",48.854185228374995,2.3086989138998,Dr Pinabel,Doctor's Office
1124,38bis Av Renée Coty,48.828032554454005,2.3343585501704,CMIE Médecine du Travail,Doctor's Office
1125,82 Rue Damremont,48.893134478362,2.3276229948219997,Clinique Veterinaire Belais,Veterinarian
1126,,48.852716972329,2.4060212303112998,"Maraîchers [26, 64]",Bus Station
1127,Avenue De Versailles,48.839273520901,2.2608594137187,Cabinet du Dr Tobelem,Doctor's Office
1128,192 Boulevard Haussmann,48.874877032243006,2.3057341575623,"Arrêt Friedland - Haussmann [22,43,52,83,93]",Bus Station
1129,Paris,48.828861489046,2.3678482629695,L'asile Psychiatrique De La CAF,Hospital
1130,168 Quai Louis Bleriot,48.84011606543,2.2678295700515,Croix-Rouge Francaise Paris XVI,Medical Center
1131,2 Avenue Kléber,48.872711191094,2.2942307346635,"Arrêt Charles de Gaulle - Étoile - Kléber [22,30,N53]",Bus Station
1132,,48.82936,2.32249,Dr Botte,Doctor's Office
1133,,48.853024495126,2.2775053407386,Parking Radio France,Parking
1134,,48.866801170094995,2.2737484667222003,rue Serge Prokofiev,Road
1135,Boulevard de La Tour Maubourg 70,48.85673535623901,2.3100836309013997,Gorshok chez Adel,Emergency Room
1136,,48.846770226476,2.4061934076898996,Dr Altervain,Doctor's Office
1137,"6, Villa Said",48.873458672601004,2.2795450687408,Ambassade de la Republique de Lettonie | Latvijas Republikas vēstniecība,Embassy / Consulate
1138,Rue de Pontoise,48.849393356031,2.3516321182251,Rue de Pontoise,Road
1139,12 quai de Gesvres,48.856899943517,2.3486720983691,"Préfecture de Police - Guichet des cartes d'identité, passeports et associations",Government Building
1140,2 rue de Rungis,48.82202481345,2.3463320732117,Autolib',Rental Car Location
1141,Rue des Haies,48.854367672186,2.4032825287847004,Rue des Haies,Road
1142,Avenue Erlanger,48.847444755505,2.2623360157012997,Avenue Erlanger,Road
1143,,48.846664000000004,2.259661,Pole Emploi Cadres Chanez,Government Building
1144,11 Rue Lepic,48.884588052779996,2.3333146912457,Docteur Lacombes,Doctor's Office
1145,,48.840451416745005,2.3818038151373,Tribunal d'Instance du 12ieme,Courthouse
1146,11 place des Cinq Martyrs du Lycée Buffon,48.838252877668,2.317839785898,Ministère de la santé,Government Building
1147,,48.874036,2.284233,Consulat du Liban,Government Building
1148,,48.857457435354995,2.2649397122095,Raffet,Bus Line
1149,,48.866487791148,2.2717199472496,Longchamp PC,Bus Line
1150,34 Avenue Theophile Gautier,48.850559390122996,2.2729860619195,"Arrêt Perrichont [22,52]",Bus Line
1151,,48.83678920042,2.3902084277414,Rue Coriolis,Road
1152,Hôpital Européen Georges Pompidou,48.838664522446,2.2743415832519998,Service de Cardiologie,Hospital
1153,"288, Boulevard Saint-Germain",48.862428278691,2.3199683826696,Délégation du Parlement européen,Government Building
1154,Bâtiment Le ponant D - 25 rue Leblanc 75015 PARIS - RCS B,48.839819657155,2.2736504404206004,CEA - Energie Atomique & Energies Alternatives,Government Building
1155,"91 Avenue du Général Leclerc, 75014 Paris",48.826797485352,2.3265905380249,Dr. Alain Senikies,Doctor's Office
1156,Hôpital de la Pitié-Salpêtrière,48.835064254778004,2.3637143797353,Parc de la Pitié-Salpêtrière,Park
1157,Avenue d'Eylau,48.863898516223,2.2858060984112,Avenue d'Eylau,Road
1158,Rue d'Alleray,48.836757875196,2.3031163215637003,Rue d'Alleray,Road
1159,"rue André Pascal, 2",48.861809488605005,2.2690404040882997,OECD Conference room cc12,Meeting Room
1160,,48.844869587436,2.2846308149239998,Cabinet du Dr Petit,Doctor's Office
1161,"48 Avenue Philippe-Auguste, 75011 Paris",48.852527618408004,2.3935642242432,kine,Doctor's Office
1162,25 avenue Michel Bizot,48.83369029112799,2.3988414007286,Docteur Hassid,Doctor's Office
1163,"4,6 Rue Faustin Helie",48.860148913556,2.2769755054991,Vélib' [16-111],Bike Rental / Bike Share
1164,,48.833975472802,2.3762320515243,BNF - Salle C,Library
1165,29 rue du Château-d'eau,48.870416919649,2.3588262173189,Maison de la Culture Yiddish,Library
1166,175,48.88640734129599,2.3053463394837,Kinesitherapeute Vezin,Medical Center
1167,,48.868452000000005,2.284617,Centre De Radiologie Et Echographie,Medical Center
1168,,48.834034241831,2.307698989106,Bus 62,Bus Line
1169,,48.868044074154994,2.2842823723748,Rue Mesnil,Road
1170,,48.882685747252,2.3619325040986,Rue Louis Blanc,Road
1171,23 Rue Saint Blaise,48.85929,2.405365,Ledente Leyla - Ophtalmologue,Doctor's Office
1172,"25 Rue du Rendez-Vous, 75012 Paris",48.844733124912004,2.4045872310411,Cabinet dentaire Berdugo-Trumer,Dentist's Office
1173,,48.842769968804,2.2810284316616003,Dr Lasnier,Doctor's Office
1174,145 Boulevard Vincent Auriol,48.83282430325,2.3624789714812997,"Arrêt Nationale [27,N31]",Bus Station
1175,20 Boulevard Masséna,48.824351,2.37751,Station Maryse Bastié [T3a],Light Rail
1176,26 Boulevards des Maréchaux,48.830024,2.3920369999999997,Station Baron Le Roy [T3a],Light Rail
1177,Boulevards des Maréchaux,48.831973,2.398324,Station Porte de Charenton [T3a],Light Rail
1178,Porte Dorée,48.835553000000004,2.406671,Station Porte Dorée [T3a],Light Rail
1179,67 Boulevard Soult,48.839846,2.408859,Station Montempoivre [T3a],Light Rail
1180,113 Boulevard Soult,48.843771999999994,2.4101470000000003,Station Alexandra David-Néel [T3a],Light Rail
1181,,48.839647,2.302636,Docteur Verdier,Doctor's Office
1182,101 Rue De Belleville,48.874103929212,2.3854644707754997,Vélib' [19-41] V+,Bike Rental / Bike Share
1183,47 Rue de Boulainvilliers,48.855927,2.274696,"Arrêt Les Vignes - Boulainvilliers RER [22, 52]",Bus Station
1184,rue de la Folie Méricourt,48.867348347048996,2.3691621660281,Rue de la Folie Méricourt,Road
1185,Rue Fernand Holweck,48.834647820483,2.3142440892654,Rue Fernand Holweck,Road
1186,71 avenue Henri Martin,48.863785184800996,2.2769233273489,Tribunal d'Instance du 16ème arrondissement,Courthouse
1187,6 place Gambetta,48.864774,2.399409,Tribunal d'instance du 20e,Courthouse
1188,Avenue Simon Bolivar,48.876230183106,2.3807596922717997,Arrêt Botzaris - Buttes Chaumont [26],Bus Station
1189,Avenue Mozart,48.858187,2.274588,"Arrêt La Muette - Boulainvilliers [22,32,52,N53]",Bus Station
1190,Avenue de Saint Ouen,48.895266895919,2.3280582660612,Arrêt Navier [81],Bus Station
1191,29 Rue Des Meuniers,48.834076,2.397529,Cabinet Du Docteur Bouziz,Doctor's Office
1192,,48.848335999999996,2.264191,Cabinet Du Dr Taylor,Doctor's Office
1193,,48.82366752327,2.3632640234509,La Pitié Salpétrière - Urgence,Hospital
1194,,48.834431409128,2.4118754564592,Arrêt Place Edouard Renard [46],Bus Line
1195,,48.835870625367,2.4147387517861,Arrêt Alphand [46],Bus Line
1196,,48.836566536287,2.4183036570203,Arrêt Sainte Marie - République [46],Bus Line
1197,,48.83539366155,2.4214461506089,Arrêt Saint Mandé - Demi Lune - Parc Zoologique [46],Bus Line
1198,,48.840959783018,2.3996746722957005,Pediatre Pauliat-Desbordes,Doctor's Office
1199,,48.839281860159,2.340769410058,Hôpital Militaire du Val de Grâce,Hospital
1200,20 bis rue daru,48.878403768105,2.3029814519646,Cabinet du Dr Peltriaux,Doctor's Office
1201,Rue de La Faisanderie,48.86813064409,2.2755110263823997,Rue de La Faisanderie,Road
1202,Rue Ernest Renan / Parc Des Expositions,48.830924721777,2.284807435772,Vélib' [15-126],Bike Rental / Bike Share
1203,,48.833222694473,2.3761381130893,Salle F,Library
1204,"39-43, quai André Citroën",48.847201250356996,2.2796905708562,"Ministère du Travail, de l'Emploi et de la Santé",Government Building
1205,Rue De La Faisanderie,48.867579406021,2.2751814492617,Commissariat de proximité du 16eme,Police Station
1206,"13 Rue de Panama, 75018 Paris",48.888011224334,2.3514649359893998,Protection Civile de Paris 18ème,Medical Center
1207,,48.859308934361,2.2660864479402,Сквер Бойцов Писателей Воевавших За Францию)),Rest Area
1208,Quai de la Gare,48.836539,2.374603,Quai de la Gare,Road
1209,150 rue des poissonniers,48.897661017705005,2.3526427092113,Federation Leo Lagrange,Government Building
1210,Rue Ponscarme,48.82654548481,2.3677897453308,Rue Ponscarme,Road
1211,Route De La Ceinture Du Lac Daumesnil,48.827782,2.4180919999999997,Vélib' [12-120],Bike Rental / Bike Share
1212,Avenue de la porte D'Italie,48.818704,2.359746,"Arrêt Porte D'Italie-Hélène Boucher [47,185,N15,N22]",Bus Station
1213,22 Rue Goerge Sand,48.849594294906,2.2684864397816003,"Arrêt George Sand - La Fontaine [22,52]",Bus Line
1214,190 boulevard de Charonne,48.858151,2.392775,CSS - Le 190,Doctor's Office
1215,,48.847194,2.313514,Unité Lycées région Ile-de-France,Monument / Landmark
1216,,48.831043,2.3121810000000003,Ophtalmologiste Dr Kretz,Doctor's Office
1217,,48.846136,2.381761,EFS Crozatier,Medical Center
1218,,48.836514320674,2.2919020256346,La Taverne Du Bison Cendré,Emergency Room
1219,,48.84553,2.4135240000000002,"Mairie de Paris, Carte Stationnement",City Hall
1220,"Cabinet de Fleur PELLERIN, Aziz RIDOUAN, 139 rue de BERCY",48.840699737335996,2.3778287413698,Ministère délégué aux PME à l'innovation et à l'économie numérique,Government Building
1221,,48.864140579408996,2.2731759132422997,Arret Henri Martin - Bus 63,Bus Station
1222,8 boulevard Barbès,48.883799982938996,2.3504554609192003,"Arrêt Barbès-Rochechouart [31, 56]",Bus Station
1223,31 rue du Sergent Bauchat,48.846093100115006,2.3940128385327997,Dr Sobotka,Dentist's Office
1224,,48.830261731679,2.3190903827892004,Arrêt Alésia-Didot [62],Bus Line
1225,167 Rue De Rome,48.887484613089,2.3141771214356,Vélib' [17-17],Bike Rental / Bike Share
1226,48 Rue Du Fbg Saint Martin,48.870558,2.356782,Camionette blanche de la DCRI,Government Building
1227,85 rue de la Victoire,48.874962,2.3315,Cmie Victoire,Medical Center
1228,,48.843867318962005,2.2817067234806,Salle De Detente,Hospital
1229,,48.835246999999995,2.420114,Bus 46 - Arrêt Demi-Lune Parc Zoologique,Bus Line
1230,2 Place D'Italie,48.832052000000004,2.3547599999999997,Vélib' [13-08] V+,Bike Rental / Bike Share
1231,3 Rue Taine,48.838628902847994,2.3986438804357,Boucherit Bachir,Medical Center
1232,15-23 Boul. d'Auteuil,48.845748751225,2.2500148255903,Arrêt Stade Roland Garros [123],Bus Line
1233,,48.846488725866,2.2564816450116,[PC1] Dufrenoy,Bus Line
1234,,48.837261438846,2.3632935893717004,Cour des Consultations,Hospital
1235,"18, Bd de Grenelle",48.853232,2.289904,Cabinet de radiologie - Site Grenelle IRMO - Site IRM,Medical Center
1236,77 Boulevard Saint Jacques,48.829457233289006,2.3469939227711003,Auditorium Ubifrance,Convention Center
1237,,48.865266511226,2.3987724491102003,Antenne De Police Du 20e,Police Station
1238,Rue de la Clef,48.83960601824899,2.3534164153073,Rue de la Clef,Road
1239,Rue du Faubourg Saint-Honoré,48.875181953971996,2.3054423542141,"Arrêt Hoche Saint-Honoré [31,43,93]",Bus Station
1240,,48.866052149248,2.2743298494279998,Malaysian Embassy,City Hall
1241,,48.848431511217,2.2675501235551,Kiné,Medical Center
1242,,48.857767700000004,2.2628629,Maison de malaisie,Embassy / Consulate
1243,Espace Central - 4 rue Lobau,48.856388639696,2.3536531243584,DICOM,City Hall
1244,,48.899364450101004,2.331686600706,Urgences Hôpital Bichat,Hospital
1245,1 place Édouard Renard,48.835522046548995,2.4073791503906,Vélib' [12-32],Bike Rental / Bike Share
1246,Rue Darcy,48.871062048935,2.4048350812881,Rue Darcy,Road
1247,"15, Rue Beranger",48.865990970252,2.3634068243536,Dr Mintz,Doctor's Office
1248,,48.859706315707996,2.3186333434549997,Ministere des droits de la femme,Government Building
1249,8 rue de Lanneau,48.84841240220899,2.3466032476666,Centre René-Capitant,Medical Center
1250,,48.821369474743996,2.3640893313006,Hopital H.E,Hospital
1251,32 rue Javelot,48.825076311347,2.3660945892333998,Espace Jeunes Olympiades,Government Building
1252,48 Avenue de Charenton,48.849871,2.37396,S.E.S.T // Visite médicale,Doctor's Office
1253,72 Rue D'Auteuil,48.846584320068,2.2627804279327,Dermatologue Dr P.,Doctor's Office
1254,Rue des Belles Feuilles,48.867373317654,2.2812282459935003,Rue des Belles Feuilles,Road
1255,Rue De L Aqueduc,48.885920134906996,2.3609784572984998,Elan Retrouvé,Hospital
1256,2 Bis Rue de Bénouville,48.869149985076,2.2774635300707997,Embassy Of Malaysia (Ambassade de Malaise),Embassy / Consulate
1257,3 rue Lamblardie,48.83981,2.396191,Cabinet Médical Lamblardie,Doctor's Office
1258,,48.87677440081801,2.2934062022191,alain elbaz,Doctor's Office
1259,140 Avenue Parmentier,48.869655012174995,2.3713731765747004,Vélib' [11-35],Bike Rental / Bike Share
1260,,48.828292022487,2.3025237553931,Avenue de la Porte Brancion,Road
1261,Porte de Versailles,48.832701456525,2.284414754428,Mode City Interfiliere Paris,Convention Center
1262,6 Boulevard de Reims,48.891312028156996,2.2997141733232,Centre des impôts du 17ème arrondissement,Government Building
1263,,48.881291,2.284524,Consulat de Russie,Government Building
1264,25 rue de claude decaen,48.835828307123,2.4009660863792996,Cabinet Dr Bétous,Doctor's Office
1265,,48.866292826113,2.3690787502118,Dermatologue Dega,Doctor's Office
1266,"55, rue de Chateaudun",48.876180484767,2.3332326651655,Maison du don Trinité,Laboratory
1267,Rue Godefroy Cavaignac,48.855397757466,2.3808436038878,Arrêt Godefroy Cavaignac [46],Bus Station
1268,,48.880662901505005,2.2999378799843,Osteo Paillardy,Medical Center
1269,103 Rue Des Pyrennees,48.856130638136996,2.4054110565172997,Vélib' [20-11],Bike Rental / Bike Share
1270,7 Rue Bernard De Clairvaux,48.862323689962,2.3527704809247,Dentiste Dr Bismuth,Dentist's Office
1271,,48.846249046405,2.4148693399403998,Docteur Hervé Renet,Doctor's Office
1272,,48.874265063898,2.3770708178009,Rue Rebeval,Road
1273,11 Places De La Nation,48.849488,2.396168,Dr Benchimol,Doctor's Office
1274,Rue de Tocqueville,48.885940268353,2.3096394538879,Rue de Tocqueville,Road
1275,7 Bd de Rochechouart,48.883641058220995,2.3487971473338,L'Hacienda,Capitol Building
1276,Avenue Daumesnil,48.833692964201,2.4130117893219,Vélib' [12-41],Bike Rental / Bike Share
1277,Route De L'Artillerie,48.839056,2.4376759999999997,Vélib' [12-124],Bike Rental / Bike Share
1278,Rue du 8 mai 1945,48.876253014362,2.3574578762054,"Arrêt Gare de l'Est Noctilien [N140,N141,N142,N143,N144,N145]",Bus Line
1279,Gare de Paris-Bercy,48.838199945536005,2.3827469223861,Arrêt iDBUS Paris,Bus Station
1280,Rue Friant,48.826521958484,2.3242014868007,Rue Friant,Road
1281,22 avenue de laumiere,48.883871076374,2.3802992908445,Dentiste Joseph Nammour,Dentist's Office
1282,Rue d'Aix,48.870353665361,2.3695707321167,Rue d'Aix,Road
1283,10 bd des Batignolles,48.88343400796,2.3268922190843,Vélib' [08-12],Bike Rental / Bike Share
1284,,48.884556185063,2.3290571803119997,Rue Forest,Road
1285,,48.85332406227101,2.2620011085573997,[PC1] Raffet,Bus Line
1286,,48.82139862562801,2.341179831676,Rue Liard,Road
1287,34 Rue George Sand,48.850640000000006,2.267718,Dr Chikhani,Dentist's Office
1288,38 rue bichat,48.871725820908004,2.3682105812183,Etablissement français du sang,Medical Center
1289,,48.838137317396004,2.4003047478634,Dr Nitescoux,Dentist's Office
1290,,48.837276709205,2.2773790624671,Place balard 42 88,Bus Line
1291,139 rue de BERCY,48.839561327723,2.3762226104736,Cabinet de Fleur Pellerin,Government Building
1292,74 rue Archereau,48.89294052124001,2.3762938976287997,Assurance Maladie -  Centre Flandre,Medical Center
1293,,48.831592362765,2.3643168132874,Internet,General Travel
1294,6 Rue Euler,48.870919146912,2.2990524101015,Tourisme Flandre & Bruxelles,Government Building
1295,,48.83406651234,2.3076426675060002,Rue de Vouillé,Road
1296,"75, rue de la Faisanderie",48.867469,2.275233,SAIP du 16ème arrondissement,Police Station
1297,,48.866299141549995,2.3995220915981,Cabinet Dentaire,Dentist's Office
1298,,48.842203190545995,2.2803358212578,Rue des Bergers,Road
1299,Rue Bretonneau,48.867210683649,2.4025127175636003,Rue Bretonneau,Road
1300,,48.831238,2.289684,Cosmeeting Paris,Convention Center
1301,,48.826921397185004,2.3197476155347,Sainte Monique,Medical Center
1302,Rue Emeriau,48.850102881955,2.2867226600647004,Rue Emeriau,Road
1303,,48.821057986209,2.3427140441237997,Doc. Ecale Ostéo,Doctor's Office
1304,99 Rue De Charonne,48.854428450696,2.3841619297584002,Cabinet Médical Dr Lachkar,Doctor's Office
1305,,48.891482,2.337206,Docteur Astar,Doctor's Office
1306,Rue de Tolbiac,48.825947469140004,2.3531157550674,Rue de Tolbiac,Road
1307,Boulevard de Clichy,48.883372235211,2.3339295387268,Boulevard de Clichy,Road
1308,,48.824564,2.3726529999999997,Proteor,Medical Center
1309,Avenue Hoche,48.876189508328,2.3009490966797004,Avenue Hoche,Road
1310,21 rue Leblanc,48.839252243506,2.2704684685345,Etablissement Français du Sang - HEGP,Hospital
1311,70 Boulevard Davout,48.852986,2.410748,Station Porte de Montreuil [T3b],Light Rail
1312,125 Boulevard Davout,48.85876,2.409696,Station Marie de Miribel [T3b],Light Rail
1313,166 Boulevard Davout,48.863518,2.4088380000000003,Station Porte de Bagnolet [T3b],Light Rail
1314,59 Boulevard Mortier,48.867490999999994,2.408988,Station Séverine [T3b],Light Rail
1315,108 Boulevard Mortier,48.872121,2.408623,Station Adrienne Bolland [T3b],Light Rail
1316,167 Boulevard Mortier,48.876651,2.4070139999999998,Station Porte des Lilas [T3b],Light Rail
1317,7 Boulevard d'Algérie,48.879438,2.4012849999999997,Station Hôpital Robert Debré [T3b],Light Rail
1318,6 Boulevard d'Indochine,48.884109,2.396993,Station Butte du Chapeau Rouge [T3b],Light Rail
1319,43 Boulevard d'Indochine,48.889005,2.395706,Station Porte de Pantin — Parc de la Villette [T3b],Light Rail
1320,83 Boulevard Macdonald,48.897455,2.386543,Station Porte de la Villette — Cité des Sciences et de l'Industrie [T3b],Light Rail
1321,181 Boulevard Macdonald,48.898753,2.380535,Station Canal Saint-Denis [T3b],Light Rail
1322,203 Boulevard Macdonald,48.897589,2.373368,Station Rosa Parks [T3b],Light Rail
1323,22 Boulevard Ney,48.898619000000004,2.369055,Station Porte d'Aubervillers [T3b],Light Rail
1324,70 Boulevard Ney,48.89845,2.3581119999999998,Station Porte de la Chapelle [T3b],Light Rail
1325,42 Allee Vivaldi,48.841912717283,2.3895907402039,Vélib' [12-28],Bike Rental / Bike Share
1326,Rue Balard,48.840784078536,2.2777939421169,Rue Balard,Road
1327,,48.833836,2.39794,Trésor Public,Government Building
1328,,48.830753642862994,2.2907137517871003,International French Travel Market,Convention Center
1329,"166, Rue Raymond Losserand",48.830010495762,2.3097794271817,Dr. Philippe GIBEAULT (Rhumatologue),Doctor's Office
1330,Allée du Canal,48.89559348974,2.3925686578919,Parking La Villette,Parking
1331,,48.836045587121,2.445217258819,Tec Stand Nicoteam,Convention Center
1332,,48.89270913024,2.3331037018133,Centre Des Impôts Grandes Carrières,Government Building
1333,Rue Villiers de L'Isle d'Adam,48.86646295470101,2.3957389340152995,Rue Villiers de l'Isle d'Adam,Road
1334,Boulevard Jourdan,48.821417317157,2.3333072662354,Boulevard Jourdan,Road
1335,83 Rue De L'Ourcq,48.892723,2.377847,Biopath,Laboratory
1336,3 rue Georges Thill,48.886209,2.389059,Cabinet De Kinésithérapie,Medical Center
1337,,48.836798815006,2.3554019501998,Cabinet D'osteopathie,Medical Center
1338,2 Rue Elisa Lemonnier,48.839828999999995,2.390243,Croix Rouge DL12 Local Secourisme,Emergency Room
1339,Rue de Condé,48.851106838397996,2.3382033591202003,Rue de Condé,Road
1340,17 rue Saint-Ambroise,48.86217639828,2.3772547021157004,Vélib' [11-27],Bike Rental / Bike Share
1341,4 Place Du Cardinal Lavigerie,48.832944964995,2.4027812496182,Vélib' [12-113],Bike Rental / Bike Share
1342,81 Rue Bobillot,48.825509155254004,2.3500012988025,Vélib' [13-24],Bike Rental / Bike Share
1343,76 Avenue D'Ivry,48.824832554132996,2.3630091615853996,Vélib' [13-37],Bike Rental / Bike Share
1344,Avenue David Weil,48.820719645924996,2.3344257177526,Vélib' [14-124],Bike Rental / Bike Share
1345,76 rue Cambronne,48.84360174729,2.3022159844791,Vélib' [15-12],Bike Rental / Bike Share
1346,91 Rue Du Ranelagh,48.855414735815,2.2703270290379,Vélib' [16-26],Bike Rental / Bike Share
1347,68 Boulevard Flandrin,48.868628324694,2.2742062277557,Vélib' [16-12],Bike Rental / Bike Share
1348,Avenue Henri Martin,48.86392016315,2.2772233527929,Vélib' [16-13],Bike Rental / Bike Share
1349,98 Av. Henri Martin,48.863017218134004,2.2687915769169,Vélib' [16-19],Bike Rental / Bike Share
1350,1 Rue Francois Ponsard,48.858070907858,2.2742702090554,Vélib' [16-21],Bike Rental / Bike Share
1351,79 Av Mozar,48.852690491745,2.2684919684964,Vélib' [16-27],Bike Rental / Bike Share
1352,76 Rue D'Auteuil,48.847443103455,2.260579305877,Vélib' [16-34],Bike Rental / Bike Share
1353,Allee Des Fortifications,48.848612569593,2.2578889449126,Vélib' [16-35],Bike Rental / Bike Share
1354,73 Bis Boulevard Exelmans,48.843432959417,2.2605391479512997,Vélib' [16-40],Bike Rental / Bike Share
1355,2 rue Benjamin Godard,48.865869991116,2.2757080608054,Vélib' [16-107],Bike Rental / Bike Share
1356,"4, 6 Rue Octave Feuillet",48.860895489663,2.2730176347502997,Vélib' [16-110],Bike Rental / Bike Share
1357,52 Rue Raffet,48.85252514993,2.2625679069901,Vélib' [16-115],Bike Rental / Bike Share
1358,Route Porte Des Sablons / Porte Maillot,48.878665034031,2.2703242654085,Vélib' [16-121],Bike Rental / Bike Share
1359,Avenue De Saint Cloud,48.858715022827994,2.2587179663666,Vélib' [16-129],Bike Rental / Bike Share
1360,Avenue Louis Barthou / Place De La Colombie,48.863699508297,2.2674965889722003,Vélib' [16-130],Bike Rental / Bike Share
1361,Rond Point Du Marechal Delatre De Tassigny,48.871639396301,2.2748020247891,Vélib' [16-135],Bike Rental / Bike Share
1362,48 Rue Boinod,48.894391848394,2.3526303393746,Vélib' [18-37],Bike Rental / Bike Share
1363,53 Rue Miguel Hidalgo -,48.882508003007004,2.3931885384132,Vélib' [19-26] V+,Bike Rental / Bike Share
1364,1 Rue Vidal de la Blache,48.867078744570996,2.4088514359579,Vélib' [20-27] V+,Bike Rental / Bike Share
1365,35-37 Boulevard Du Commandant Charcot,48.875687831404,2.2571621181902004,Vélib' [22-07],Bike Rental / Bike Share
1366,120 Avenue General De Gaulle,48.836199183751,2.4189703964917,Vélib' [41-605],Bike Rental / Bike Share
1367,"27, rue Oudinot",48.849333965686,2.3155369365832,CNAPS,Government Building
1368,,48.848022672501,2.2573337783458998,Terminus 32,Bus Line
1369,12 rue Raphaël,48.858401687434,2.2713216907757,U.S. Embassy Annex,Government Building
1370,,48.872039,2.284807,Foch [82],Bus Line
1371,Rue du Rendez-vous,48.845215377631995,2.4040158094933997,Rue du Rendez-vous,Road
1372,"51, Rue Faubourg Saint Antoine",48.852374,2.3730729999999998,Cabinet Du Dr. Colboc,Doctor's Office
1373,40 Rue Jean de La Fontaine,48.851006542206,2.2716379165649,Établissements Sainte-Thérèse - Apprentis d'Auteuil,Student Center
1374,,48.890995606432,2.3907198402697003,Architect@work,Convention Center
1375,80 Rue De Lille,48.861043905250995,2.3219463533612,"Ministere de la Reforme de l'Etat, de la Decentralisation et de la Fonction Publique",Government Building
1376,47 Boulevard de l'Hôpital / Boulevard Vincent Auriol,48.835719781182,2.3654723167419,Pavillon Laveran,Hospital
1377,,48.854279308918,2.2783977781387996,Rue Raynouard,Road
1378,134 Rue De Picpus,48.836779476397,2.4024963834598,"Cabinet Du Dr Marty, Medecine Du Sport",Doctor's Office
1379,78 Rue De Varenne,48.855647386983,2.3186135349083,Ministère de l'Agriculture de l'Agroalimentaire et de la Forêt,Capitol Building
1380,26 Rue Camille Desmoulins,48.859316,2.382852,Chez Geo Et Lau,Doctor's Office
1381,Quai François-Mauriac,48.834138861006004,2.3778581029486,BnF Tolbiac - Salle D,Library
1382,Rue Saint Victor 24,48.848638076148006,2.3506347881261,IBM THINK Marketing: The CMO+CIO Leadership Exchange,Event Space
1383,173 Rue de Courcelles,48.885653844755,2.29676142367,"Arrêt Péreire - Le Châtelier [84,92,93,341,N52,N16]",Bus Line
1384,28 Avenue d'Eylau,48.865226918106,2.2845843094437,Cabinet Médical & Dentaire,Doctor's Office
1385,,48.867463862349005,2.396476365352,[26] Villiers de l'Isle Adam,Bus Station
1386,Parc des Expositions,48.830242963976005,2.2887355115094,Pavillon 4,Event Space
1387,,48.845600272883,2.3711604134469,ANR,Government Building
1388,Rouyer 19-21,48.868249,2.392082,Coworking Europe Conference,Convention Center
1389,,48.840206485721,2.3770610945801,Ministère Du Redressement Productif,Government Building
1390,,48.837831121278,2.4017945873456,Dr. Benjamin Darmon,Dentist's Office
1391,43-45 Rue De La Tombe-issoire,48.830937138514,2.3340985747677996,Editions Du Dauphin,Library
1392,,48.861402044822995,2.2705095500148,oecd conference room cc15,Meeting Room
1393,15 Rue Eugene Jumin,48.88744354248,2.3921859264374,cabinet Dr Pfister,Doctor's Office
1394,,48.864639703703006,2.2942955978134,George Washington,Monument / Landmark
1395,"21 Bis, Rue Victor Massé",48.880392656588,2.337681747796,Centre medical,Medical Center
1396,,48.832103061939,2.3863135110582,Rue Baron Leroy,Road
1397,Rue de Patay,48.824596575417004,2.3764472302931003,"Arrêt Regnault [27,132]",Bus Station
1398,,48.835719973828,2.4068825361139,Bus 46,Bus Line
1399,,48.871088307338,2.4046506471996,Passage Gambetta,Road
1400,,48.86783,2.3691139999999997,555Lab,Monument / Landmark
1401,Rue Bichat,48.871661589887,2.3684227547336,Rue Bichat,Road
1402,,48.842007,2.266762,Rue Lancret,Road
1403,26 Rue Barrault,48.829560643107,2.3518176445446,Docteur Garbarini-Vincent,Doctor's Office
1404,Rue Agar,48.851495055996,2.2737004165041,Rue Agar,Road
1405,,48.873623443039996,2.2749149189912004,financium,Meeting Room
1406,Rue Jean de La Fontaine,48.851098319288,2.2722923755646,Rue Jean de La Fontaine,Road
1407,17 rue de l'Aubrac,48.834788264533,2.3868775158214,Salons de l'Aveyron,Convention Center
1408,118 Cours de Vincennes,48.846954063348996,2.4105763435364,Vélib' [12-020],Bike Rental / Bike Share
1409,,48.819220886123,2.3485677810894,Fourrière charlety,Parking
1410,,48.887067544162996,2.3776267622924,Dr Claude Fellous,Doctor's Office
1411,,48.868275529797,2.2779893784997998,Rue Charles Lamoureux,Road
1412,,48.820052501957996,2.3527996793091,Bus 57 - Arrêt Poterne des peupliers,Bus Line
1413,10 Villa D'Este,48.821490014863,2.3672124555775,Cabinet Médical Elkrieff & Levy,Doctor's Office
1414,Place des Cinq martyrs du Lycée Buffon,48.837566962817,2.3163668735185,"Arrêt Montparnasse 2 - Gare TGV [88,91,N63]",Bus Station
1415,,48.829115,2.356278,Cabinet Sitbon,Dentist's Office
1416,Porte De La Chapelle,48.898683,2.357957,Bus 166,Bus Line
1417,,48.864383761898004,2.2922679023772,Embajada de Mexico,Government Building
1418,20 Boulevard Brune,48.856687998977,2.2757112662456,IPP Brune (Institut Puériculture),Hospital
1419,,48.859858,2.269818,Embassy of Sudan,Government Building
1420,95 rue Michel-Ange,48.840203910607,2.2581624984741,Centre de Radiologie Henri Dunant,Laboratory
1421,Rue François Millet,48.850780628672,2.2727429866791002,Rue François Millet,Road
1422,,48.864004195754006,2.4072545244978,rue de la py,Road
1423,,48.836031,2.404904,Docteur Serruya,Dentist's Office
1424,,48.847766876221,2.2677886486053,Dr Terdjman (allergologue),Doctor's Office
1425,2 Rue De La Pierre Levée,48.866286229609,2.3698802290092003,Cabinet Médical,Doctor's Office
1426,,48.867175,2.403861,Docteur Kounda,Doctor's Office
1427,,48.871068439209004,2.4050057480365,Rue Du Groupe Manouchian,Road
1428,161 boulevard Voltaire,48.854659435522,2.3846165684348,Laboratoire Ana 11,Laboratory
1429,,48.871081798165996,2.4047490274347,Rue Ernest Lefevre,Road
1430,,48.871075063056004,2.4047279049204,Rue Raymond Poincarré,Road
1431,,48.827068,2.355404,Centre De Santé Du Moulinet,Doctor's Office
1432,Port de Tolbiac,48.831251837309,2.38086744992,Port de Tolbiac,Pier
1433,64 Allée de Bercy,48.84251996512,2.3760509490967,Sgmap,Government Building
1434,53 rue Raymond Losserand,48.83461899,2.31985313,Espace La Prudentielle,Meeting Room
1435,Rue Ribera,48.850872406168,2.2700393199921,Rue Ribera,Road
1436,,48.836442,2.444586,Duns & Koel4kids,Convention Center
1437,,48.891503995335,2.3481388114509,Rue Eugene Sue,Road
1438,52 Rue Léon Frot,48.856259,2.3863,Centre Voltaire,Medical Center
1439,,48.876349703616,2.3072532329443,Ambassade Myanmar,Embassy / Consulate
1440,CHSA 1 rue Cabanis,48.827006651773004,2.3384351839588,Raymond Garcin,Medical Center
1441,,48.844481,2.249739,Infirmerie De Dupanloup,Emergency Room
1442,107 rue du théâtre,48.846123092627,2.294388250915,duboquet,Medical Center
1443,RUE Cortambert,48.858943610901,2.2750152285184,L'ambassade d'Indonesie,Government Building
1444,Clinique Jeanne d'Arc,48.826056587945004,2.3674770074877998,Laboratoire La Scala,Laboratory
1445,,48.861551265838,2.3631413610002996,Rue Debelleyme,Road
1446,,48.82498600607099,2.3248504197795,Cabinet de Dermathologie,Medical Center
1447,Rue Degas,48.848878065524,2.2751288025685,Arrêt Degas [72],Bus Station
1448,62 Avenue De Flandres,48.888506522522,2.3735239322149,cabinet medical,Doctor's Office
1449,,48.86327734243,2.3778895008965,Rue De Bretagne,Road
1450,"15, Rue Des Sablons",48.865841951734,2.283731508319,Rue des Sablons,Road
1451,,48.829403000000006,2.291106,Pavillon 6,Convention Center
1452,"15, Rue Lacépède",48.843632945557005,2.3529623285909,Centre De Chirurgie Digestive Et De L'obésité,Medical Center
1453,"9, Rue De Quatrefages",48.843526316655996,2.3542038505214,Institut Parisien Du Dos,Medical Center
1454,83 Rue Léon Frot,48.858001708984006,2.3840780258179,Vétérinaire,Veterinarian
1455,9bis Rue De Maubeuge,48.877078999999995,2.342253,Radiologie,Doctor's Office
1456,,48.85884,2.2288900000000003,Avenue de Laqueduc,Road
1457,,48.884157683226995,2.315333566256,Garage Securitas,Parking
1458,138 Rue De Saint Ouen,48.896304,2.3286130000000003,Docteur Bittan,Doctor's Office
1459,54 rue du château,48.84496241987001,2.2515084095549,Arrêt 52 - La Tourelle,Bus Line
1460,Hôpital de la Salpêtrière,48.835062,2.363645,Maternité de la Salpêtrière,Hospital
1461,,48.819091703712,2.4547117860787995,Parking de L'échangeur,Rental Car Location
1462,,48.858896874686,2.2806297614057995,Rue Eugène Manuel,Road
1463,232 Rue des Pyrénées,48.867013,2.396439,Clinique Vétérinaire,Veterinarian
1464,Rue de Lancry,48.871692657471,2.3615300655365,Docteur Marty & Stoclin,Doctor's Office
1465,116 Avenue Du Président Kennedy,48.852950914716,2.2766994222015,Bibliothèque de Radio France,Library
1466,Boulevard Lannes,48.867087628099,2.2720540839509,Boulevard Lannes,Road
1467,,48.823944091796996,2.3517210483551003,dr.  Élie attali,Dentist's Office
1468,,48.826922631776,2.3411338739158998,Hopital Sainte Anne,Hospital
1469,8 rue noël balay,48.847911834716996,2.4121539592742995,Docteur Kong,Doctor's Office
1470,,48.866227569317,2.3995234270553,Rue Des Gātines,Road
1471,,48.830663,2.34318,Pole Emploi Daviel,Government Building
1472,,48.861343427231,2.2736590585845,Boulevard Jules Sandeau,Road
1473,,48.823576,2.327529,Centre Bus De Montrouge,Parking
1474,Avenue du Docteur Arnold Netter,48.844522236291,2.405729770763,Arrêt Avenue de Saint-Mandé [64],Bus Line
1475,15 Boulevard Jourdan,48.819959193035004,2.3405803579463,Bibliothèque de Fondation Etats-Unis,Library
1476,84 Quai De Loire,48.887143066575,2.378095767651,Pôle Emploi Spectacle,Government Building
1477,2 Place Baudoyer,48.856379688397,2.3556336311643,Mairie du 4ème Arrondissement,City Hall
1478,,48.85043111538901,2.2373399454292002,241 Arrêt Ambroise Paré,Bus Station
1479,12 Rue Télégraphe,48.872215553648005,2.4000883272169,Bibliotheque Oscar Wilde,Library
1480,126 Rue de l'Université,48.860600827155,2.3186972801228,Salle des quatre colonnes - Assemblée nationale,Government Building
1481,21 Rue Lecourbe,48.840030613733994,2.2959999131326003,Assad XVème,Doctor's Office
1482,123 avenue Simon Bolivar,48.880945317333,2.3735627470883998,Arrêt Marché Secrétan [26],Bus Line
1483,15 Rue Rémusat,48.847738,2.272133,Cabinet Doc. Rougereau (Chir. Ortho. Trauma.),Doctor's Office
1484,,48.83980178833,2.4034736156464,Louis Braille [64],Bus Line
1485,43 Rue Mouraud,48.856473,2.408667,Ceragem,Hospital
1486,,48.840332688071,2.3770830125165,Hotel Des Ministres De Bercy,Government Building
1487,,48.830967,2.36709,Acupuncteur Me Zhu,Doctor's Office
1488,,48.831891362902,2.3435224732376,Mon Garage,Parking
1489,,48.88531,2.329336,Parking Redele,Parking
1490,83 Rue Blomet,48.839618,2.3011470000000003,Docteur Gaudillat,Doctor's Office
1491,100 boulevard Kellermann,48.819223339725,2.3464436853256,Cabinet dentaire Pourreau / Rubinstein,Dentist's Office
1492,Parc des Expositions de la Porte de Versailles,48.83005314605,2.2882667699392,Pavillon 3,Event Space
1493,,48.857559205377996,2.288607889242,Monument de la France Renaissante,Monument / Landmark
1494,,48.841041564940994,2.4074800014496,espace médical Porte dorée,Dentist's Office
1495,Rue de Valence,48.837707740533,2.3492178910157,Bibliothèque Russe Ivan Tourguéniev,Library
1496,Rue Charles Tellier,48.838419839503004,2.2617879476301,Cabinet Medical Dr Combastet,Doctor's Office
1497,3 RUE JEAN BAPTISTE MARTY,48.849479675293,2.4151885509491,SCP MARTIN FITOUSSI,Government Building
1498,Franprix,48.878075053267004,2.3717719929462002,Parking A Class,Parking
1499,,48.862874,2.27297,Cabinet De M. Arouete,Medical Center
1500,,48.882362365723,2.3517017364502,Maternité Hôpital Lariboisière,Hospital
1501,Boulevard d'Auteuil,48.845619103149005,2.2554252092217,"Arrêt Porte Molitor [52, 123]",Bus Line
1502,,48.830942537287996,2.3240777052337003,pharmacie des plantes,Medical Center
1503,,48.834878137909,2.3720105782938,Bnf - Salle K,Library
1504,,48.848000697479,2.2740010355027995,Arrêt Pont Mirabeau [72],Bus Line
1505,1 Avenue du Général Sarrail,48.84739180334601,2.2571539878845,Autolib' Station (Parking Porte d'Auteuil SPIE Autocité),Rental Car Location
1506,,48.861653000000004,2.271902,Ambassade de la République du Congo,Monument / Landmark
1507,,48.877604999999996,2.393916,Avoir la ... fraise dès le matin !,Dentist's Office
1508,4 rue Boucry,48.8936326,2.3627416,Centre des Finances Boucry,Government Building
1509,,48.844385242300994,2.2873442802865,Kimiko's Garage,Parking
1510,,48.848166770183,2.2589047888532,Arrêt de bus - Porte d'Auteuil [32],Bus Line
1511,4 Rue De BENOUVILLE,48.869028968549,2.2772331680902003,Ambassade de Malaisie,Government Building
1512,,48.826690673828004,2.3445219993591,les plus beaux dessins du monde,Meeting Room
1513,Passage Du Surmelin,48.871082597586,2.4047980095422004,Passage Du Surmelin,Road
1514,,48.880486,2.28298,Megabus Paris - Amsterdam,Bus Line
1515,150 Avenue D'Italie,48.822568,2.3584680000000002,Cabinet Dentaire Des dr Chekir-Kastalli et Tellissi,Dentist's Office
1516,,48.83017,2.3559490000000003,Europcar,Rental Car Location
1517,,48.885867950093,2.2977877955852004,Dr Bourdeau,Doctor's Office
1518,Rue Archereau,48.89180611003199,2.374371505458,Rue Archereau,Road
1519,,48.893228024604994,2.3759811196998997,Bibliothèque Benjamin Rabier,Library
1520,"60, Bd Emile Augier",48.863581506706,2.2739454367439,Docteur Bidat,Doctor's Office
1521,136 Boulevard Exelmans,48.847240447998,2.2592599391937003,Dr R. Sabine (gynecologue),Doctor's Office
1522,4 Bvd Filles Du Calvaire,48.861036,2.367324,Laboratoire D'analyses Medicales,Laboratory
1523,,48.85968,2.278611,Centre d'Imagerie Medicale La Muette,Medical Center
1524,62 Rue De Bagnolet,48.857820000000004,2.399659,Cabinet Vétérinaire du Dr Dol,Veterinarian
1525,,48.837396000000005,2.31758,Consulado do Brasil em Paris,Government Building
1526,,48.892469928841,2.3045628416568,TGI,Courthouse
1527,,48.838073,2.404795,SFL - Société Française Du Livre,Library
1528,,48.833117,2.3775209999999998,Bnf Tour Des Lois,Government Building
1529,"54, Rue De Tolbiac",48.828599352312004,2.3678482629695,Cabinet Dentaire Dr Bismuth,Dentist's Office
1530,Gare de Paris-Nord,48.88074762552999,2.3542284965515,Eurostar Business Premier Lounge,Travel Lounge
1531,11 Rue De Lancry,48.869158,2.3603099999999997,Bibliotheque Lancry,Library
1532,,48.884944,2.3334509999999997,Ma Kiné,Medical Center
1533,6 Rue Cimarosa,48.868020555002005,2.2901922651527,Ambassade Argentine,Government Building
1534,,48.883859538269995,2.3051479034732996,Centre Médicale Veille Du Sommeil,Hospital
1535,39 rue Fessart,48.876874565080996,2.3858908001525,Clinique des Buttes Chaumont,Hospital
1536,52 Rue Jacques Hillairet,48.843078736011,2.3900296460823998,Cnes Daumesnil,Government Building
1537,"121, Avenue du Général De Gaulle",48.860984032486,2.3704315071815,Conseil Général du Val-de-Marne,Government Building
1538,,48.83277130127,2.3746893405914,Assurance Maladie - Agence Buttes Chaumont,Government Building
1539,,48.824612362433,2.3556739875573,Cabinet de Kinésitherapie,Doctor's Office
1540,25 Rue Manin,48.875845,2.380384,Fondation Ophtalmologique Adolphe De Rothschild,Hospital
1541,,48.828938,2.366181,Brigade Financière,Police Station
1542,71,48.891224528950005,2.3493226222603996,Cabinet Medicale,Doctor's Office
1543,Auteuil,48.847751617432,2.2648179531097,Laboratoire l'analyses médicales,Laboratory
1544,,48.884441808035,2.3924442731077002,Rue Des Carrières d'Amérique,Road
1545,,48.88241140988401,2.353531312678,Hopital Lariboisiere secteur violet,Hospital
1546,53 avenue Gambetta,48.872138977051,2.4122009277344,Dentiste Michel ZAVERIO,Dentist's Office
1547,"4 Place de la Porte de Passy 75016 Paris, France",48.85803,2.2639669999999996,주 OECD 대한민국 대표부,Government Building
1548,79 rue de Grenelle,48.855267,2.322548,Hôtel d'Estrées - Résidence de l'ambassadeur de Russie,Government Building
1549,,48.828366708663,2.3026336490663,Boulevard Lefebvre,Road
1550,,48.822765999999994,2.325282,Laboratoire Lavergne,Laboratory
1551,15 Rue Vieille du Temple,48.856761397911995,2.3562033439857,Dr Laurent Cambourieux,Doctor's Office
1552,"45, Avenue Saint Mande",48.844844726794,2.4039484576671,Cabinet D'osteopathie Anouck Alpern,Medical Center
1553,28 place de la Bourse,48.870062444551,2.3393726706325,Palais brogniart,Meeting Room
1554,10 Rue Du Faubourg Montmartre,48.871836042904995,2.3429728802328,Gcs D-Sisif,Government Building
1555,,48.835426,2.339832,Unité de Soins intensifs de Cardiologie de l'Hôpital Cachin,Emergency Room
1556,,48.859536,2.239312,Bus 241,Bus Line
1557,,48.882142230647,2.3529647990001004,hôpital Lariboisiere secteur jaune porte 11,Hospital
1558,,48.864951182798,2.3976547005857003,Commissariat De Police Gambetta,Police Station
1559,"175, Rue Legendre",48.891739,2.3260919999999996,Cabinet d'Orthophonie,Medical Center
1560,,48.816486564094,2.3578976632492004,Peripherique,Road
1561,,48.84083599182,2.4045481017465002,Urgences Pediatriques Trousseau,Hospital
1562,Rue de reuilly,48.847758937166994,2.3859214782715,Caserne de Reuilly,Fire Station
1563,,48.840780419806,2.302532977956,Centre Des Impots Rue Du General Beuret,Government Building
1564,228 Avenue Du Maine,48.828704833984006,2.3264241218567,Docteur Nguyen Phuong vinh,Doctor's Office
1565,61 Rue de la Grange aux Belles,48.877349853515994,2.3687090873718,Cabinet Diététique,Medical Center
1566,62 Rue Du Surmelin,48.869325,2.406231,PMI,Medical Center
1567,55 Rue Saint Dominique,48.859931,2.315562,Ministère Des Familles,Government Building
1568,,48.861259999999994,2.4052830000000003,Docteur Letavernier,Doctor's Office
1569,,48.83492921171,2.3653290439444,Périph,Road
1570,32 Av du Dr Arnold Netter,48.843087,2.405351,Laboratoire d'Analyses Desty Pons,Laboratory
1571,,48.894104,2.393872,Infirmerie du Zenith,Emergency Room
1572,,48.841734077802,2.3182612349766,zone 84/2,Fire Station
1573,Blvd de l'hôpital,48.83761515943,2.3665513416985,Bâtiment Paul Castaigne @hôpital Pitié-Salpétrière,Hospital
1574,,48.877052097025,2.3937179887001,BDEP Amérique,Police Station
1575,24 Rue De La Folie Méricourt,48.862643,2.373389,Embassy of the United Kingdom of F,Capitol Building
1576,Colonel Fabien,48.878171214445,2.370680882913,Arrêt Colonel Fabien [75],Bus Station
1577,4 Rue Marietta Martin,48.856410033832,2.2738475465247996,4 rue Marietta Martin,Government Building
1578,145 Avenue De Versailles,48.84175491333,2.2667653560637997,medecine du travail,Doctor's Office
1579,66 rue Pergolèse,48.872920897126,2.2803698120497002,Délégation du Québec à Paris,Government Building
1580,,48.867024,2.396672,Ophtalmo Nguyen,Doctor's Office
1581,,48.864753723145,2.3988952636719,Médecin,Doctor's Office
1582,,48.892534999999995,2.344591,Tribunal  d'Instance du 18ème,Courthouse
1583,,48.871978359871996,2.3451352591109,Arco Del Triunfo,General Travel
1584,,48.868301,2.289089,Académie Polonaise des Sciences,Government Building
1585,,48.865097045898,2.2343015670776,Arrêt Hippodrome de Longchamp [241],Bus Line
1586,,48.854113446169,2.3762746958021,Эйфелева Башня,General Travel
1587,,48.843544,2.299544,Dr Chiaverini,Doctor's Office
1588,91 rue Claude Decaen,48.838325568239,2.3964786529541002,Antenne Jeunes Claude Decaen,Government Building
1589,,48.845742,2.32552,Mon Orthodontiste,Dentist's Office
1590,15 rue Louis Lejeune,48.820127484863995,2.3260250860227,Agence de Sûreté Nucléaire,Government Building
1591,,48.864639282227,2.3952271938323997,Sécurité Dept. Père lachaise,Police Station
1592,210,48.87408673885899,2.3299201311442004,Prefecture de Police,Police Station
1593,,48.88653,2.391786,Cabinet Du Docteur Cohen,Doctor's Office
1594,39 bis rue de Montreuil,48.850464105158004,2.3875594157072,Cabinet de podologie,Doctor's Office
1595,40 Avenue de Verdun,48.819259854382,2.4546603958257998,Centre Hospitalier Intercommunal Créteil,Hospital
1596,,48.883903123972,2.3195571605816,Caserne des Sapeurs-Pompiers rue Boursault,Fire Station
1597,,48.857808951,2.3715721914371,Laboratoire CBCV,Laboratory
1598,"6, Rue Bardinet",48.830848693848,2.3165349960327,Maison De La Justice Et Du Droit - Paris Sud,Courthouse
1599,,48.846531,2.414458,File Ringweg Parijs,Road
1600,4 Rue Taine,48.838791362902,2.3900913216667004,Cabinet Dentaire Dr Nizard,Dentist's Office
1601,Rue de Richelieu,48.871127894225,2.3400590982045,Rue de Richelieu,Road
1602,,48.864162,2.271188,Ambassade du Cambodge,Government Building
1603,191 rue de Charenton,48.840064609559995,2.3841314587275,Préfecture de Police – Antenne du 12e arrondissement,Government Building
1604,,48.858857095142,2.4057985323887,Mission Locale du 20e Arrondissement,Government Building
1605,,48.836907933627,2.3058418275629,Rue Paul Barruel,Road
1606,209 Rue De Vaugirard,48.841983777913,2.3097181580573998,Centre Medical Institut Pasteur,Hospital
1607,5 Rue Elsa Morante,48.82845,2.3821380000000003,Clinicprosport,Medical Center
1608,,48.837040757749996,2.3988015229506,Périphérique De Paris,Road
1609,17 Rue De L'Evangile,48.89287,2.3630259999999996,Cabinet Medical Des Drs Samama,Doctor's Office
1610,,48.835117691266,2.273746188895,Périphérique,Road
1611,26 rue Bois Le Vent,48.857641,2.275112,Clinique vétérinaire,Veterinarian
1612,,48.868248,2.3214069999999998,Sofitel Salon Le Faubourg,Meeting Room
1613,112 rue de Maubeuge,48.882359801289,2.3548293113709,Cabinet Médical Régional de PARIS-NORD,Medical Center
1614,,48.866633630919,2.4111251304418997,Rue Le Vau,Road
1615,,48.870648575038004,2.4109095447394,Avenue De La Porte De Menilmontant,Road
1616,,48.828753000000006,2.368806,Toubib,Doctor's Office
1617,12-17 Rue Carducci,48.877508469235,2.3853926907137,Kinesitherapie Osteopathie,Medical Center
1618,"102, Avenue Des Champs Elysées",48.871295835817,2.3020242543839,TC Paris Büyükelçiliği Kültür Ve Tanıtma Müşavirliği,Government Building
1619,163 Avenue d'Italie,48.819411114297,2.3596787452698,DASES 13,Government Building
1620,,48.871010999999996,2.394083,Docteur Cheniour,Medical Center
1621,2 Square La Fontaine,48.850739727623996,2.2715542175395,Cabinet La Fontaine Kinésithérapie,Medical Center
1622,Quai de Montebello,48.851889007179004,2.3497545719147004,Batobus [Notre Dame],Boat or Ferry
1623,,48.887722628346005,2.3475929878022,Parking Rue de Clignancourt,Parking
1624,,48.883915487487,2.3569586422865,"París,Francia",General Travel
1625,,48.866701,2.4047970000000003,Rue Des Montiboeufs,Road
1626,,48.823071,2.330804,Montsouris-Tombe Issoire [88],Bus Line
1627,,48.842729999999996,2.4010759999999998,Centre  de Sante Ose,Dentist's Office
1628,119 Av Général Leclerc,48.823917,2.3265849999999997,RIP Alesia,Medical Center
1629,11 Bd Des Italiens,48.871722474025,2.3378953550765,Cabinet S Lapierre kinésithérapeute,Doctor's Office
1630,,48.84008026123,2.389897108078,mairie,City Hall
1631,21 Rue Truffaut,48.88468952977,2.3221690899151,Prefecture De Police Du 17eme,City Hall
1632,,48.847303000000004,2.284634,Police,Police Station
1633,"27, Rue Du Faubourg Saint Jacques",48.836254,2.340474,Bâtiment Jean Dausset,Laboratory
1634,229 rue Raymond Losserand,48.830161243381994,2.3103506316808997,Laboratoire de Biologie Médicale Losserand,Laboratory
1635,,48.882937,2.370861,Docteur Marbot,Doctor's Office
1636,,48.889225,2.319624,Docteur Belly,Doctor's Office
1637,,48.89137,2.374125,Centre dentaire Archereau,Dentist's Office
1638,110 Rue Du Faubourg Poissonnière,48.878971471492996,2.349965178321,Cabinet médical,Dentist's Office
1639,44 rue de Vaugirard,48.84145651165301,2.3169062613102,Abracadacom,Meeting Room
1640,,48.833398214538,2.3045203794432,Cabinet De Kinesitherapie Brancion,Medical Center
1641,,48.892596999999995,2.344991,Die Schwarzwaldklinik,Medical Center
1642,27 Avenue De friedland,48.873665773782996,2.3015927935289,Hotel Potocki,Government Building
1643,,48.88445,2.32174,Antennz De Police Administrative,Police Station
1644,160 av. de Clichy,48.891330718994,2.3190240859985,Laboratoires d'Analyses,Laboratory
1645,,48.882473095524,2.3009967564502998,Clinique Veterinaire,Veterinarian
1646,34 Avenue Bugeaud,48.870622999999995,2.2806509999999998,Ambassade De La République Du Nicaragua,Government Building
1647,,48.821264,2.3458069999999998,Protection Civile Paris 13,Medical Center
1648,www.richhaircare.com,48.829248443965994,2.2890531548249,Cosmeeting Paris - RICH Hair Care,Convention Center
1649,,48.869032000000004,2.276186,Ambassade De La République De Guinée,Government Building
1650,3 Rue Du Maroc,48.886168383714,2.3697605930559003,Centre Médical Stalingrad,Dentist's Office
1651,,48.823805,2.365543,Parking Tang Frères,Parking
1652,82 Rue Boissière,48.869415999999994,2.285815,Arret Victor Hugo Poincaré,Bus Line
1653,5 rue du bessin,48.83102138997,2.3056313954315,CHK - Aura,Hospital
1654,,48.855639552906,2.3230092017176003,Rue De Grenell,Monument / Landmark
1655,,48.831021,2.33013,Centre Médical Denfert,Medical Center
1656,Luxembourg,48.8402,2.34401,27 bus,Moving Target
1657,,48.878436,2.403212,Efs,Hospital
1658,"66, Rue Didot",48.829544,2.317217,Atom And Pixel Fondation,Convention Center
1659,,48.867258,2.287619,Rue Leo Delibes,Road
1660,,48.863132250091,2.3023509811595,Seine Cruise,Boat or Ferry
1661,,48.828720049774,2.3989263250544,Boulevard Périphérique,Road
1662,22 Rue Monsieur Le Prince,48.84635925293,2.3698711395264,Orthoptiste,Doctor's Office
1663,19 rue Michel-Ange,48.846540999999995,2.263025,Docteur Augey,Doctor's Office
1664,,48.835906,2.3881959999999998,La Chambraudie RATP,Medical Center
1665,124 Boulevard Voltaire,48.858715057373,2.3786559104919,Docteur Elkaim,Doctor's Office
1666,Rue D'Auteuil,48.847596,2.2662400000000003,Laboratoire Biopath,Laboratory
1667,58 rue Guy Moquet,48.89276890165999,2.3262047767639,dalla Psicologa,Medical Center
1668,,48.877132,2.304011,EBG Diner des 500,Meeting Room
1669,13 Rue Moreau,48.850053434122,2.3721703956802997,Le Resah,Government Building
1670,39 Boulevard Magenta,48.872751,2.359297,Centre Sésame,Medical Center
1671,8 Avenue Victor Hugo,48.872901,2.29243,Centre Hypnose & Psychosomatique,Doctor's Office
1672,,48.843662,2.280288,Квартирка в Париже,Rest Area
1673,,48.880596999999995,2.284757,Conf RoomCezanne,Meeting Room
1674,37 rue Richer,48.873950958252,2.3439161777496,Mouseland,Embassy / Consulate
1675,,48.880831,2.284824,Conf Room Pissarro,Meeting Room
1676,,48.880759000000005,2.284841,Conf Room Van Gogh,Meeting Room
1677,,48.879055685781005,2.2832601028684,Scrum Gathering Paris,Convention Center
1678,47 Avenue Raymond Poincaré,48.866595000000004,2.286202,Docteur Sylvie HENAULT,Doctor's Office
1679,,48.856189,2.2801549999999997,Le roi de France Anruan I,Embassy / Consulate
1680,,48.880088368725005,2.2842648375334997,Monceau,Meeting Room
1681,"107, rue du Théâtre",48.849115000000005,2.28757,Dr Gilles Duboquet,Doctor's Office
1682,22 Rue Augereau,48.856693,2.302462,Cabinet d'ostéopathie,Medical Center
1683,,48.843555,2.282794,Dr Davane,Dentist's Office
1684,,48.833657,2.375498,BNF - Salle D Haut De Jardin,Library
1685,17 Rue Trudaine,48.880928273704995,2.341109279235,Trudaine Chiropratique,Doctor's Office
1686,UNESCO,48.849511252271995,2.3056647416376,Salle X,Capitol Building
1687,Rue Jean de La Fontaine,48.851065999999996,2.2720740000000004,Arrêt Léopold II [52],Bus Station
1688,295 Avenue Daumesnil,48.834755537972,2.4100026325894,Direction de la Voirie et des Déplacements- Division des Opérations Non Sectorisées,Government Building
1689,23 Avenue De La République,48.865986,2.3714470000000003,Assistance Aux Animaux,Veterinarian
1690,Bastille,48.853631,2.3671919999999997,Somewhere in Paris,Medical Center
1691,,48.852478356852,2.3451284795480003,TGI Paris,Courthouse
1692,,48.844865000000006,2.293536,Poignetradiotologue,Medical Center
1693,,48.871850180768995,2.273560950143,Bd Peripherique,Road
1694,,48.852237701415994,2.4021103382111,Cabinet De Dentiste (Voges),Dentist's Office
1695,132 Rue De Courcelles,48.881326,2.3009619999999997,Cabinet Ostheo,Doctor's Office
1696,,48.881268976137,2.3733250701147997,Rue De Meaux,Road
1697,,48.893379211426,2.3200390338898,docteur SARPDAG,Doctor's Office
1698,,48.871659,2.403554,Avenue de la Porte de Ménilmontant,Road
1699,,48.88816,2.37996,Rue Tandou,Road
1700,,48.853028,2.4107369999999997,Rue des Rasselins,Road
1701,,48.847062,2.286002,Medecine Du Travail,Doctor's Office
1702,"178, Avenue Daumesil",48.83881582716,2.3972153821405,Docteur J Moussa,Doctor's Office
1703,11 Rue Oberkampf,48.863174,2.368606,Cabinet médical de Nourith Sekroun,Doctor's Office
1704,,48.896440312362,2.3869134400686,CCV - Centre Des Congrès De La villette,Convention Center
1705,12 Rue de Berri,48.872679999999995,2.304446,Consulado General de Colombia en París,Embassy / Consulate
1706,,48.845295,2.294423,Mon Dentiste,Dentist's Office
1707,54 rue des Saints Pères,48.853974,2.3295369999999997,Société de l'Histoire du Protestantisme Français,Library
1708,Rue Brezin,48.831361,2.328329,CASVP 14eme,Government Building
1709,,48.878892,2.346181,Cabinet Du Docteur Nejar,Dentist's Office
1710,Parijs,48.892112,2.384815,Architects@work Paris,Convention Center
1711,6 Rue De L'orme,48.877813,2.4002209999999997,Ici c'est apéro,Convention Center
1712,3 Rue de Tolbiac,48.830317138042,2.3775282266948996,URSAAF de Paris Sud,Government Building
1713,,48.830729999999996,2.334116,Centre de Pathologie et d'Imagerie,Laboratory
1714,92 rue de Gergovie,48.831106,2.318495,Centre de santé Tisserand,Medical Center
1715,10 bis rue Ordener,48.889650091273005,2.3582713165697005,Kiné Ordener,Medical Center
1716,26 rue de Rivoli,48.856435,2.35855,Docteur Bernard,Doctor's Office
1717,Place du Carrousel,48.861393,2.3341380000000003,Pyramide Inversée du Louvre,Monument / Landmark
1718,Av. Mathurin Moreau,48.878094,2.371611,Station Autolib',Rental Car Location
1719,181 boulevard Vincent Auriol,48.831510709503,2.3593351088731,Enterprise,Rental Car Location
1720,,48.820789000000005,2.359306,Brignoles,City Hall
1721,22 AV DU BEL AIR,48.84753275302,2.397127979832,CENTRE D'EXPLORATION OPHTALMOLOGIQUE - NATION,Eye Doctor
1722,Boulevard Pasteur,48.841504,2.3138799999999997,Clinique vétérinaire Benoit Thomas,Veterinarian
1723,,48.848603999999995,2.291196,Dentologue,Doctor's Office
1724,31 Avenue De Lowendal,48.849295,2.302886,UE3C,Doctor's Office
1725,,48.89921,2.3309599999999997,JFR Hologic stand 1 Hall Neuilly,Convention Center
1726,,48.873944082091,2.2681084623002,allée de Longchamp,Road
1727,,48.865570068359006,2.2691025733948,Пашкина биби =),Moving Target
1728,44 rue Saint-Placide,48.84806060790999,2.3259315490723,Docteur Annabelle TENENBAUM,Dentist's Office
1729,159 Boulevard Malesherbe,48.885632,2.306501,Cabinet Dentaire - Dr Cadet & Dr Bertrant,Dentist's Office
1730,10 Rue Civiale,48.871437072754,2.3741166591644,cabinet paramedical civiale,Medical Center
1731,Rue Pajol,48.866976584694,2.353663379547,Bibliothèque Vaclav Havel,Library
1732,10 Rue Louis-Blanc,48.879165,2.3692450000000003,Consulat Chaoui - Paris X,Embassy / Consulate
1733,6-8 boulevard Haussmann,48.872315500000006,2.3387466,Bpifrance,Government Building
